{
"type": "FeatureCollection",
"name": "cb_2024_us_state_20m",
"crs": { "type": "name", "properties": { "name": "urn:ogc:def:crs:OGC:1.3:CRS84" } },
"xy_coordinate_resolution": 0.0001,
"features": [
{"type":"Feature","properties":{"STATEFP":"48","STATENS":"01779801","GEOIDFQ":"0400000US48","GEOID":"48","STUSPS":"TX","NAME":"Texas","LSAD":"00","ALAND":676656702022,"AWATER":19011620342},"geometry":{"type":"Polygon","coordinates":[[[-106.5813,31.8139],[-106.6185,32.0005],[-103.0644,32.0005],[-103.0419,36.5004],[-100.0004,36.4997],[-100.0004,34.5605],[-99.9293,34.5767],[-99.6965,34.381],[-99.4204,34.3805],[-99.395,34.4421],[-99.3504,34.4371],[-99.2116,34.314],[-99.1895,34.2143],[-98.9402,34.2037],[-98.7372,34.131],[-98.6481,34.1644],[-98.4751,34.0643],[-98.364,34.1571],[-98.1691,34.1142],[-98.1234,34.1545],[-98.0828,34.0024],[-97.9476,33.9911],[-97.9512,33.8784],[-97.8658,33.8494],[-97.6718,33.9914],[-97.5583,33.8971],[-97.4865,33.917],[-97.4442,33.8238],[-97.2061,33.9143],[-97.1494,33.722],[-97.0911,33.7351],[-97.0558,33.8557],[-96.9523,33.9446],[-96.9053,33.9472],[-96.8506,33.8472],[-96.7124,33.8316],[-96.6599,33.9167],[-96.3631,33.6942],[-96.1516,33.8319],[-95.8206,33.8585],[-95.6037,33.9272],[-95.3523,33.8678],[-95.2834,33.8777],[-95.2264,33.962],[-94.8416,33.7394],[-94.7661,33.748],[-94.3881,33.5655],[-94.1834,33.5922],[-94.0434,33.5514],[-94.0418,31.9924],[-93.8534,31.8055],[-93.8034,31.7007],[-93.8349,31.5862],[-93.7259,31.5041],[-93.7495,31.4687],[-93.6024,31.1825],[-93.5351,31.1856],[-93.5309,30.9245],[-93.7292,30.5448],[-93.7027,30.4299],[-93.7603,30.3299],[-93.7072,30.2755],[-93.7039,30.0543],[-93.9292,29.8029],[-93.838,29.6906],[-94.0565,29.6712],[-94.6704,29.4308],[-94.7225,29.3314],[-95.3824,28.8663],[-96.3288,28.4237],[-96.7922,28.1105],[-97.0033,27.9083],[-97.2961,27.4272],[-97.3787,27.06],[-97.1456,25.9711],[-97.3384,25.9231],[-97.3729,25.8401],[-97.4226,25.8404],[-97.644,26.0066],[-97.7953,26.0552],[-98.1971,26.0562],[-98.4425,26.1991],[-98.6542,26.236],[-98.8074,26.3694],[-99.082,26.3965],[-99.2686,26.8432],[-99.447,27.026],[-99.4452,27.2233],[-99.5297,27.3061],[-99.4875,27.4124],[-99.5301,27.5802],[-99.8447,27.7788],[-99.9322,27.9677],[-100.2676,28.2503],[-100.3973,28.5756],[-100.5004,28.662],[-100.5358,28.8059],[-100.6272,28.9037],[-100.6747,29.0998],[-101.0602,29.4587],[-101.2549,29.5203],[-101.4006,29.7381],[-101.5616,29.7947],[-102.1157,29.7924],[-102.3014,29.8777],[-102.3929,29.7656],[-102.6772,29.7383],[-102.8087,29.5223],[-102.8713,29.2416],[-103.0764,29.0857],[-103.1267,28.9821],[-103.2812,28.9821],[-103.789,29.2575],[-104.0556,29.3309],[-104.5398,29.6761],[-104.6723,29.9111],[-104.7028,30.2117],[-104.8595,30.3904],[-104.9248,30.6048],[-105.2187,30.8016],[-105.3942,30.853],[-105.9539,31.3647],[-106.1757,31.4563],[-106.3701,31.7107],[-106.5813,31.8139]]]}},
{"type":"Feature","properties":{"STATEFP":"06","STATENS":"01779778","GEOIDFQ":"0400000US06","GEOID":"06","STUSPS":"CA","NAME":"California","LSAD":"00","ALAND":403673433805,"AWATER":20291632828},"geometry":{"type":"MultiPolygon","coordinates":[[[[-118.594,33.4672],[-118.4848,33.4875],[-118.2863,33.3515],[-118.3252,33.2991],[-118.4654,33.3261],[-118.594,33.4672]]],[[[-118.594,33.036],[-118.4468,32.8954],[-118.3535,32.822],[-118.4256,32.8006],[-118.4879,32.8446],[-118.6416,33.0171],[-118.594,33.036]]],[[[-119.5789,33.2786],[-119.5105,33.3073],[-119.4296,33.2282],[-119.5459,33.2334],[-119.5789,33.2786]]],[[[-119.9162,34.0583],[-119.3642,34.0508],[-119.3631,34.0005],[-119.7959,33.9629],[-119.8734,33.9804],[-119.9162,34.0583]]],[[[-120.3683,34.0765],[-120.0551,34.0377],[-119.9737,33.9425],[-120.1218,33.8957],[-120.4541,34.0281],[-120.3683,34.0765]]],[[[-124.387,40.505],[-124.1181,40.9893],[-124.164,41.1387],[-124.0631,41.4396],[-124.1435,41.7093],[-124.245,41.7923],[-124.2116,41.9985],[-119.9992,41.9945],[-120.001,38.9996],[-117.2449,37.0302],[-114.6335,35.0019],[-114.6344,34.8729],[-114.4652,34.6912],[-114.3788,34.4504],[-114.1409,34.3059],[-114.2297,34.1869],[-114.428,34.0928],[-114.535,33.9285],[-114.4966,33.7192],[-114.5246,33.5522],[-114.6352,33.4227],[-114.7253,33.405],[-114.7233,33.2881],[-114.6745,33.2556],[-114.7062,33.1053],[-114.6708,33.038],[-114.5113,33.0235],[-114.469,32.8452],[-114.5707,32.7474],[-114.7196,32.7188],[-117.1249,32.5342],[-117.1689,32.672],[-117.2461,32.6694],[-117.2808,33.0123],[-117.4456,33.2685],[-118.1327,33.7532],[-118.2587,33.7037],[-118.3966,33.7359],[-118.4127,33.8839],[-118.5195,34.0275],[-118.8051,34.0012],[-119.1098,34.0946],[-119.3758,34.3211],[-119.6169,34.421],[-119.874,34.4088],[-120.1412,34.4734],[-120.4514,34.4471],[-120.5114,34.523],[-120.6226,34.554],[-120.6103,34.8582],[-120.6708,34.9041],[-120.6358,35.1238],[-120.8968,35.2479],[-120.8848,35.4302],[-121.0034,35.4607],[-121.1667,35.6354],[-121.2723,35.6667],[-121.4862,35.9704],[-121.8885,36.3028],[-121.9704,36.5828],[-121.9239,36.6346],[-121.8606,36.6111],[-121.8145,36.6829],[-121.7915,36.8152],[-121.8623,36.9316],[-121.9065,36.969],[-122.106,36.956],[-122.3971,37.1873],[-122.4093,37.3748],[-122.5167,37.5213],[-122.512,37.7711],[-122.3981,37.8056],[-122.3602,37.5925],[-122.1685,37.5041],[-122.112,37.5289],[-122.1631,37.6679],[-122.3337,37.8098],[-122.3345,37.9088],[-122.4253,37.9557],[-122.2629,38.0515],[-122.3936,38.1435],[-122.4913,38.1081],[-122.4995,38.0322],[-122.453,37.9962],[-122.4864,37.9219],[-122.4185,37.8527],[-122.4835,37.8267],[-122.7026,37.8938],[-122.8566,38.0167],[-123.0115,38.0034],[-122.9536,38.1757],[-123.0041,38.297],[-123.0535,38.2994],[-123.1664,38.4749],[-123.3319,38.5655],[-123.7105,38.9132],[-123.6907,39.0213],[-123.8253,39.3608],[-123.7665,39.5528],[-123.8517,39.832],[-124.0871,40.0785],[-124.3634,40.261],[-124.387,40.505]]]]}},
{"type":"Feature","properties":{"STATEFP":"21","STATENS":"01779786","GEOIDFQ":"0400000US21","GEOID":"21","STUSPS":"KY","NAME":"Kentucky","LSAD":"00","ALAND":102266755818,"AWATER":2384136185},"geometry":{"type":"Polygon","coordinates":[[[-89.5444,36.5745],[-89.4079,36.5623],[-89.3787,36.6223],[-89.3247,36.624],[-89.2273,36.5694],[-89.0988,36.9578],[-89.1681,37.0742],[-89.001,37.2244],[-88.4761,37.0682],[-88.4248,37.1499],[-88.5147,37.2909],[-88.4659,37.4005],[-88.0623,37.4878],[-88.1601,37.6543],[-88.028,37.7992],[-87.9038,37.8178],[-87.9217,37.9079],[-87.6259,37.8519],[-87.5513,37.9254],[-87.4186,37.9448],[-87.1056,37.7676],[-87.0103,37.9197],[-86.8109,37.9971],[-86.7222,37.8926],[-86.6152,37.8529],[-86.5998,37.9068],[-86.5094,37.9029],[-86.5218,38.0383],[-86.3213,38.1474],[-86.2064,38.0219],[-86.0334,37.9704],[-85.9224,38.0287],[-85.8948,38.1885],[-85.8162,38.283],[-85.6836,38.2955],[-85.5878,38.4505],[-85.4156,38.5463],[-85.4489,38.7134],[-85.2755,38.7412],[-85.1873,38.6876],[-84.9625,38.778],[-84.8129,38.7861],[-84.7864,38.8822],[-84.8778,38.9204],[-84.8326,38.9615],[-84.8972,39.0524],[-84.7507,39.1474],[-84.6079,39.0732],[-84.4452,39.1145],[-84.2973,38.9897],[-84.2129,38.8057],[-83.8521,38.7514],[-83.7722,38.6581],[-83.6795,38.63],[-83.5333,38.7021],[-83.2865,38.5992],[-82.8892,38.7561],[-82.8513,38.6043],[-82.6185,38.4771],[-82.5719,38.3158],[-82.6262,38.1348],[-82.465,37.9769],[-82.4876,37.917],[-82.2961,37.6862],[-82.0644,37.5445],[-81.9683,37.5378],[-82.3553,37.2652],[-82.7263,37.1118],[-82.7223,37.0579],[-82.8692,36.9742],[-82.8954,36.8821],[-83.0756,36.8506],[-83.1364,36.7431],[-83.5271,36.666],[-83.6907,36.5826],[-86.5078,36.6524],[-87.8532,36.6332],[-87.8496,36.6637],[-88.0705,36.6781],[-88.0505,36.5001],[-89.5392,36.4979],[-89.5444,36.5745]]]}},
{"type":"Feature","properties":{"STATEFP":"13","STATENS":"01705317","GEOIDFQ":"0400000US13","GEOID":"13","STUSPS":"GA","NAME":"Georgia","LSAD":"00","ALAND":149485762701,"AWATER":4419221858},"geometry":{"type":"Polygon","coordinates":[[[-85.6052,34.9847],[-83.1086,35.0007],[-83.1406,34.9249],[-83.3239,34.7897],[-83.3387,34.682],[-83.0483,34.4933],[-82.8738,34.4715],[-82.7154,34.1482],[-82.5568,33.9454],[-82.3245,33.82],[-82.1619,33.6106],[-81.9263,33.4629],[-81.9327,33.3435],[-81.8461,33.3038],[-81.8465,33.2417],[-81.7635,33.2036],[-81.7551,33.1515],[-81.502,33.0151],[-81.4206,32.8312],[-81.3971,32.6056],[-81.1948,32.4651],[-81.133,32.3348],[-81.1133,32.1132],[-80.8431,32.0242],[-81.1306,31.7227],[-81.2828,31.2443],[-81.4021,31.1254],[-81.4441,30.7097],[-81.9432,30.8274],[-82.0327,30.7507],[-82.0282,30.4474],[-82.0408,30.3701],[-82.0947,30.3608],[-82.18,30.3686],[-82.2186,30.5644],[-84.8647,30.7115],[-85.1075,31.1864],[-85.0419,31.5447],[-85.1255,31.695],[-85.1418,31.8393],[-85.0678,31.9674],[-85.0588,32.136],[-84.8918,32.2634],[-85.0081,32.3367],[-84.9718,32.4428],[-85.1844,32.8613],[-85.6052,34.9847]]]}},
{"type":"Feature","properties":{"STATEFP":"55","STATENS":"01779806","GEOIDFQ":"0400000US55","GEOID":"55","STUSPS":"WI","NAME":"Wisconsin","LSAD":"00","ALAND":140294555214,"AWATER":29341156602},"geometry":{"type":"MultiPolygon","coordinates":[[[[-86.9343,45.4211],[-86.8357,45.4502],[-86.8059,45.4129],[-86.8999,45.2952],[-86.9562,45.352],[-86.9343,45.4211]]],[[[-90.7769,47.0243],[-90.5609,47.037],[-90.5116,46.9614],[-90.6371,46.9067],[-90.7769,47.0243]]],[[[-92.8867,45.6441],[-92.7211,45.8838],[-92.3518,46.0157],[-92.294,46.0744],[-92.2922,46.6632],[-92.2055,46.6647],[-92.1433,46.7316],[-91.9619,46.6825],[-91.5111,46.7575],[-91.2116,46.8668],[-91.1676,46.8448],[-90.9846,46.9256],[-90.9894,46.9823],[-90.9241,47.0019],[-90.7453,46.8943],[-90.9557,46.5925],[-90.7948,46.6249],[-90.7373,46.6923],[-90.5656,46.5849],[-90.2149,46.4999],[-90.1205,46.3369],[-89.0916,46.1385],[-88.6578,45.9893],[-88.5267,46.0208],[-88.178,45.9471],[-88.0739,45.8756],[-88.1351,45.8217],[-88.1055,45.7988],[-87.8051,45.7036],[-87.781,45.6739],[-87.8247,45.6532],[-87.7777,45.6092],[-87.8635,45.353],[-87.6573,45.3688],[-87.7418,45.1971],[-87.5902,45.0953],[-87.6303,44.9769],[-87.8434,44.9244],[-87.8384,44.874],[-87.9835,44.7202],[-88.0412,44.5726],[-88.0055,44.5392],[-87.9438,44.5297],[-87.7752,44.6393],[-87.5813,44.8518],[-87.3934,44.9344],[-87.2382,45.1673],[-87.1216,45.2098],[-87.0576,45.2928],[-86.9778,45.2907],[-87.0632,45.0793],[-87.447,44.5863],[-87.5454,44.3214],[-87.5074,44.2108],[-87.6552,44.0819],[-87.736,43.8737],[-87.7062,43.6795],[-87.8892,43.3077],[-87.9005,43.1259],[-87.8349,42.8567],[-87.7667,42.7849],[-87.8147,42.644],[-87.8005,42.4919],[-90.6428,42.5085],[-90.7009,42.6264],[-91.0172,42.7196],[-91.1747,43.0387],[-91.1753,43.1347],[-91.0579,43.254],[-91.2074,43.3737],[-91.2733,43.6666],[-91.244,43.773],[-91.291,43.8527],[-91.4405,44.0015],[-91.8173,44.1642],[-91.9636,44.3621],[-92.2325,44.4454],[-92.3615,44.5589],[-92.5493,44.5777],[-92.8053,44.7684],[-92.7508,44.9416],[-92.8029,45.0654],[-92.7405,45.1134],[-92.7619,45.2849],[-92.6468,45.4379],[-92.7569,45.5575],[-92.8811,45.5734],[-92.8867,45.6441]]]]}},
{"type":"Feature","properties":{"STATEFP":"41","STATENS":"01155107","GEOIDFQ":"0400000US41","GEOID":"41","STUSPS":"OR","NAME":"Oregon","LSAD":"00","ALAND":248630421366,"AWATER":6168761370},"geometry":{"type":"Polygon","coordinates":[[[-124.5524,42.8406],[-124.4362,43.0713],[-124.4004,43.3021],[-124.2335,43.5571],[-124.1503,43.9108],[-124.0741,44.7981],[-123.9629,45.2802],[-123.9395,45.7088],[-123.9937,45.9464],[-123.9293,46.042],[-123.9592,46.1417],[-124.0411,46.1977],[-123.9981,46.2353],[-123.9124,46.1794],[-123.7182,46.189],[-123.4796,46.2691],[-123.3714,46.1464],[-123.1159,46.1853],[-122.9041,46.0837],[-122.814,45.961],[-122.7381,45.6441],[-122.3315,45.5482],[-122.1017,45.5835],[-121.8113,45.7068],[-121.3378,45.7049],[-121.2158,45.6712],[-121.1838,45.6064],[-120.8956,45.6429],[-120.635,45.7458],[-120.404,45.6992],[-119.9657,45.8244],[-119.6699,45.8569],[-119.6006,45.9196],[-119.1261,45.9329],[-118.9871,45.9999],[-116.916,45.9954],[-116.7875,45.8402],[-116.5357,45.7342],[-116.4635,45.6158],[-116.8413,45.0309],[-116.8653,44.8706],[-117.0623,44.7271],[-117.243,44.391],[-117.1922,44.3286],[-117.217,44.2884],[-116.972,44.2357],[-116.8959,44.1543],[-116.9774,44.0854],[-116.9373,44.0294],[-117.0236,43.8238],[-117.0262,41.9999],[-124.2116,41.9985],[-124.3143,42.0679],[-124.411,42.2506],[-124.4131,42.6579],[-124.51,42.7348],[-124.5524,42.8406]]]}},
{"type":"Feature","properties":{"STATEFP":"29","STATENS":"01779791","GEOIDFQ":"0400000US29","GEOID":"29","STUSPS":"MO","NAME":"Missouri","LSAD":"00","ALAND":178052403953,"AWATER":2487375487},"geometry":{"type":"Polygon","coordinates":[[[-95.7656,40.5852],[-91.7291,40.6136],[-91.4194,40.3783],[-91.512,40.1704],[-91.3678,39.729],[-90.73,39.2559],[-90.6573,38.9203],[-90.5557,38.8708],[-90.4678,38.9618],[-90.3958,38.96],[-90.1133,38.8493],[-90.2099,38.726],[-90.1845,38.6115],[-90.3497,38.3776],[-90.3639,38.2364],[-90.2187,38.0944],[-89.9549,37.9666],[-89.9742,37.9192],[-89.9232,37.8707],[-89.851,37.904],[-89.5219,37.6965],[-89.5124,37.5298],[-89.4259,37.4075],[-89.517,37.2819],[-89.3595,37.0426],[-89.0988,36.9578],[-89.2025,36.7166],[-89.1655,36.6624],[-89.2273,36.5694],[-89.3247,36.624],[-89.3787,36.6223],[-89.4079,36.5623],[-89.5444,36.5745],[-89.5715,36.5381],[-89.5104,36.3784],[-89.6005,36.343],[-89.5543,36.2777],[-89.6926,36.225],[-89.5921,36.1356],[-89.7331,36.0006],[-90.3687,35.9958],[-90.064,36.303],[-90.0661,36.3863],[-90.131,36.4151],[-90.1539,36.4953],[-94.6179,36.4994],[-94.5919,39.155],[-94.7997,39.206],[-94.9081,39.3237],[-94.889,39.3924],[-95.1136,39.5539],[-94.9711,39.7231],[-94.8604,39.7495],[-94.8787,39.8265],[-94.9515,39.9005],[-95.0815,39.8617],[-95.383,40.0271],[-95.4725,40.2361],[-95.6537,40.3226],[-95.6494,40.3961],[-95.7656,40.5852]]]}},
{"type":"Feature","properties":{"STATEFP":"51","STATENS":"01779803","GEOIDFQ":"0400000US51","GEOID":"51","STUSPS":"VA","NAME":"Virginia","LSAD":"00","ALAND":102256342555,"AWATER":8529908321},"geometry":{"type":"MultiPolygon","coordinates":[[[[-76.0235,37.2891],[-75.8181,37.7917],[-75.7029,37.8497],[-75.7577,37.9039],[-75.6243,37.9942],[-75.2423,38.0272],[-75.3806,37.8517],[-75.4893,37.8325],[-75.6584,37.4518],[-75.8174,37.1934],[-75.9424,37.0896],[-75.9796,37.1004],[-76.0235,37.2891]]],[[[-83.6754,36.6008],[-83.1364,36.7431],[-83.0756,36.8506],[-82.8954,36.8821],[-82.8692,36.9742],[-82.7223,37.0579],[-82.7263,37.1118],[-82.3553,37.2652],[-81.9683,37.5378],[-81.9323,37.512],[-81.9849,37.4543],[-81.896,37.332],[-81.6786,37.2025],[-81.5606,37.2067],[-81.3622,37.3377],[-81.2251,37.2349],[-80.8355,37.3348],[-80.8651,37.4199],[-80.7701,37.3724],[-80.5448,37.4747],[-80.4648,37.4261],[-80.2234,37.6232],[-80.2923,37.6837],[-79.9712,38.0443],[-79.9162,38.1844],[-79.7875,38.2733],[-79.8041,38.3139],[-79.6897,38.4314],[-79.6491,38.5915],[-79.5426,38.5532],[-79.4766,38.4572],[-79.2978,38.4164],[-78.999,38.8401],[-78.8693,38.763],[-78.7728,38.8937],[-78.5617,39.009],[-78.4139,39.1584],[-78.4018,39.2768],[-78.3405,39.3535],[-78.3471,39.466],[-77.8282,39.1323],[-77.7195,39.3213],[-77.5882,39.302],[-77.4599,39.2187],[-77.5199,39.1209],[-77.2484,39.0269],[-77.2498,38.9859],[-77.1466,38.9642],[-77.0391,38.8681],[-77.0532,38.7099],[-77.1302,38.635],[-77.2467,38.6352],[-77.2953,38.5621],[-77.3173,38.3836],[-77.2653,38.3332],[-77.0481,38.3601],[-76.9623,38.2141],[-76.6139,38.1486],[-76.492,38.0172],[-76.2367,37.8892],[-76.3103,37.7948],[-76.3291,37.671],[-76.2794,37.6182],[-76.2485,37.3751],[-76.2755,37.31],[-76.394,37.3959],[-76.4375,37.3797],[-76.3623,37.2702],[-76.3941,37.2251],[-76.2713,37.0845],[-76.3043,37.0014],[-76.1899,36.9314],[-75.9962,36.922],[-75.867,36.5508],[-80.2952,36.544],[-81.6775,36.5881],[-81.6469,36.6119],[-83.6754,36.6008]]]]}},
{"type":"Feature","properties":{"STATEFP":"47","STATENS":"01325873","GEOIDFQ":"0400000US47","GEOID":"47","STUSPS":"TN","NAME":"Tennessee","LSAD":"00","ALAND":106770544103,"AWATER":2345359962},"geometry":{"type":"Polygon","coordinates":[[[-90.3093,34.9957],[-90.1971,35.0507],[-90.1601,35.1288],[-90.0906,35.1183],[-90.0979,35.25],[-90.1666,35.2746],[-90.0879,35.3633],[-90.1125,35.4102],[-90.0221,35.4574],[-90.0376,35.5503],[-89.9585,35.5417],[-89.8765,35.6267],[-89.9566,35.6955],[-89.9155,35.7549],[-89.7234,35.8094],[-89.7226,35.8737],[-89.6473,35.8949],[-89.7331,36.0006],[-89.5921,36.1356],[-89.6926,36.225],[-89.5543,36.2777],[-89.6118,36.3091],[-89.5227,36.3448],[-89.5392,36.4979],[-88.0505,36.5001],[-88.0705,36.6781],[-87.8496,36.6637],[-87.8532,36.6332],[-86.5078,36.6524],[-83.6907,36.5826],[-81.6469,36.6119],[-81.7343,36.4133],[-81.706,36.3385],[-81.8332,36.3473],[-81.9081,36.302],[-82.0287,36.1243],[-82.2977,36.1335],[-82.5579,35.9539],[-82.6109,35.9744],[-82.6284,36.0621],[-82.7794,35.9925],[-82.8161,35.924],[-82.9106,35.9269],[-82.8997,35.8746],[-82.9784,35.7826],[-83.1615,35.7634],[-83.4983,35.563],[-83.7717,35.5621],[-84.0218,35.4074],[-84.0235,35.2958],[-84.2832,35.2266],[-84.3219,34.9884],[-90.3093,34.9957]]]}},
{"type":"Feature","properties":{"STATEFP":"22","STATENS":"01629543","GEOIDFQ":"0400000US22","GEOID":"22","STUSPS":"LA","NAME":"Louisiana","LSAD":"00","ALAND":111920866908,"AWATER":23730773357},"geometry":{"type":"Polygon","coordinates":[[[-94.0418,31.9924],[-94.043,33.0192],[-91.1661,33.0041],[-91.0721,32.9378],[-91.1576,32.776],[-91.057,32.7256],[-91.0988,32.6853],[-91.0113,32.5166],[-91.0605,32.5124],[-91.0529,32.4384],[-90.966,32.4248],[-90.9867,32.3518],[-90.9212,32.3421],[-90.9912,32.2147],[-91.1085,32.2081],[-91.0347,32.101],[-91.0808,32.0235],[-91.2901,31.8337],[-91.3457,31.8429],[-91.3186,31.7453],[-91.3809,31.7325],[-91.3957,31.6442],[-91.4638,31.6204],[-91.4376,31.5462],[-91.5171,31.4984],[-91.5089,31.2916],[-91.6444,31.2344],[-91.5901,31.1937],[-91.6217,31.1369],[-91.5604,31.0495],[-91.6369,30.9994],[-89.7281,31.0024],[-89.8363,30.7272],[-89.8219,30.644],[-89.6077,30.2171],[-89.5245,30.1807],[-89.8451,30.0184],[-89.8526,29.9527],[-89.6471,29.8636],[-89.4941,30.041],[-89.3422,30.0592],[-89.1833,30.1493],[-89.2363,29.8771],[-89.2933,29.8031],[-89.271,29.7564],[-89.3992,29.7706],[-89.404,29.6818],[-89.6021,29.6103],[-89.5321,29.4346],[-89.2004,29.3444],[-89.1167,29.2195],[-89.026,29.2152],[-89.0666,29.0907],[-89.1429,28.9916],[-89.2594,29.0584],[-89.401,28.9338],[-89.3611,29.0718],[-89.4828,29.2151],[-89.8426,29.3188],[-90.2236,29.0851],[-90.8678,29.0561],[-90.9419,29.1624],[-91.2788,29.2478],[-91.3349,29.2988],[-91.2655,29.361],[-91.364,29.4207],[-91.3943,29.4971],[-91.461,29.47],[-91.542,29.5943],[-91.6438,29.6306],[-91.6238,29.6992],[-91.6671,29.7458],[-91.8531,29.7029],[-91.8733,29.6273],[-91.7111,29.5693],[-91.8216,29.4739],[-92.0645,29.5857],[-92.3235,29.5315],[-92.568,29.5774],[-93.1769,29.7705],[-93.5385,29.7633],[-93.838,29.6906],[-93.9292,29.8029],[-93.7039,30.0543],[-93.7072,30.2755],[-93.7603,30.3299],[-93.7027,30.4299],[-93.7292,30.5448],[-93.5309,30.9245],[-93.5351,31.1856],[-93.6024,31.1825],[-93.7495,31.4687],[-93.7259,31.5041],[-93.8349,31.5862],[-93.8034,31.7007],[-93.8534,31.8055],[-94.0418,31.9924]]]}},
{"type":"Feature","properties":{"STATEFP":"36","STATENS":"01779796","GEOIDFQ":"0400000US36","GEOID":"36","STUSPS":"NY","NAME":"New York","LSAD":"00","ALAND":122049155860,"AWATER":19256755462},"geometry":{"type":"MultiPolygon","coordinates":[[[[-72.0348,41.2348],[-71.9268,41.2901],[-71.9173,41.2513],[-72.0348,41.2348]]],[[[-79.762,42.2699],[-79.1386,42.5645],[-79.0489,42.6892],[-78.8514,42.7918],[-78.9092,42.9333],[-79.02,42.9948],[-79.0055,43.0572],[-79.0745,43.0779],[-79.0705,43.2625],[-78.5474,43.3695],[-77.7602,43.3412],[-77.551,43.2358],[-76.769,43.3185],[-76.4176,43.5213],[-76.2358,43.5293],[-76.2035,43.575],[-76.2293,43.8041],[-76.4418,43.8829],[-76.2793,43.9725],[-76.3077,44.0253],[-76.3756,44.0315],[-76.3346,44.1649],[-75.8341,44.4224],[-75.7662,44.5158],[-75.2555,44.8576],[-74.8347,45.0147],[-73.3431,45.0108],[-73.3798,44.857],[-73.3344,44.8022],[-73.39,44.6196],[-73.2936,44.4406],[-73.3346,44.3569],[-73.3166,44.2578],[-73.4369,44.0426],[-73.3507,43.7705],[-73.425,43.5988],[-73.3958,43.5681],[-73.3277,43.6259],[-73.242,43.5349],[-73.265,42.7459],[-73.5081,42.0863],[-73.551,41.2954],[-73.4827,41.2128],[-73.7278,41.1007],[-73.6573,40.9852],[-73.7663,40.8811],[-73.4854,40.9464],[-73.2293,40.9051],[-73.1104,40.9719],[-72.5853,40.9976],[-72.1892,41.1935],[-72.2831,41.0679],[-72.1629,41.0532],[-72.1267,41.1151],[-72.0519,41.0205],[-71.8562,41.0706],[-71.937,41.0061],[-73.2084,40.6309],[-73.9406,40.5429],[-74.0573,40.5975],[-74.2606,40.5024],[-74.2022,40.6309],[-74.0473,40.6905],[-73.894,40.9972],[-74.6949,41.3574],[-74.7349,41.4258],[-74.9825,41.4965],[-75.0439,41.5751],[-75.0744,41.8022],[-75.263,41.8851],[-75.3411,41.9928],[-79.7613,41.9988],[-79.762,42.2699]]]]}},
{"type":"Feature","properties":{"STATEFP":"16","STATENS":"01779783","GEOIDFQ":"0400000US16","GEOID":"16","STUSPS":"ID","NAME":"Idaho","LSAD":"00","ALAND":214050504522,"AWATER":2390996667},"geometry":{"type":"Polygon","coordinates":[[[-117.243,44.391],[-117.0623,44.7271],[-116.8653,44.8706],[-116.8413,45.0309],[-116.4635,45.6158],[-116.593,45.7785],[-116.8598,45.9073],[-116.982,46.0849],[-116.924,46.1709],[-117.0627,46.3536],[-117.0324,48.9992],[-116.0492,49.0009],[-116.0492,47.9999],[-115.7238,47.6967],[-115.717,47.5327],[-115.6347,47.4818],[-115.7103,47.4178],[-115.3269,47.2559],[-114.7672,46.7388],[-114.6267,46.7129],[-114.6215,46.6581],[-114.3207,46.647],[-114.3517,46.5081],[-114.403,46.4987],[-114.4459,46.1739],[-114.5147,46.1677],[-114.3882,45.8823],[-114.5625,45.7799],[-114.5049,45.7222],[-114.5381,45.6068],[-114.5063,45.5592],[-114.2792,45.4806],[-114.2518,45.5378],[-113.9716,45.7006],[-113.8067,45.6021],[-113.7356,45.3253],[-113.5747,45.1284],[-113.452,45.0592],[-113.4746,44.9108],[-113.4224,44.8426],[-113.1314,44.7647],[-113.0068,44.4717],[-112.8818,44.3803],[-112.7078,44.503],[-112.3874,44.4481],[-112.3589,44.5288],[-112.2862,44.5685],[-112.1251,44.5285],[-111.8705,44.564],[-111.8079,44.5117],[-111.5628,44.5552],[-111.385,44.7551],[-111.1227,44.4937],[-111.049,44.4741],[-111.0467,42.0016],[-117.0262,41.9999],[-117.0236,43.8238],[-116.9373,44.0294],[-116.9774,44.0854],[-116.8959,44.1543],[-116.972,44.2357],[-117.217,44.2884],[-117.1922,44.3286],[-117.243,44.391]]]}},
{"type":"Feature","properties":{"STATEFP":"12","STATENS":"00294478","GEOIDFQ":"0400000US12","GEOID":"12","STUSPS":"FL","NAME":"Florida","LSAD":"00","ALAND":138965379385,"AWATER":45968913048},"geometry":{"type":"MultiPolygon","coordinates":[[[[-81.8117,24.5687],[-81.7513,24.6535],[-81.4435,24.8134],[-81.3051,24.7552],[-81.2432,24.674],[-81.6852,24.5587],[-81.8117,24.5687]]],[[[-82.0281,24.4987],[-81.9839,24.5807],[-81.8687,24.5841],[-81.9189,24.4981],[-82.0281,24.4987]]],[[[-82.1795,24.5295],[-82.1441,24.6225],[-82.0866,24.5901],[-82.1008,24.5333],[-82.1795,24.5295]]],[[[-87.6349,30.8659],[-87.5989,30.9974],[-85.0025,31.0007],[-84.8647,30.7115],[-82.2186,30.5644],[-82.18,30.3686],[-82.0947,30.3608],[-82.0408,30.3701],[-82.0282,30.4474],[-82.0327,30.7507],[-81.9432,30.8274],[-81.4274,30.698],[-81.4341,30.5226],[-81.2567,29.7847],[-80.9662,29.148],[-80.5251,28.4595],[-80.6069,28.3365],[-80.59,28.178],[-80.0463,26.8592],[-80.11,25.8183],[-80.155,25.6655],[-80.2291,25.7325],[-80.337,25.4656],[-80.3104,25.3897],[-80.176,25.5212],[-80.1632,25.4522],[-80.3582,25.1532],[-80.6512,24.8661],[-80.9662,24.7079],[-81.1034,24.6695],[-81.1487,24.7105],[-80.6109,25.007],[-80.5166,25.0955],[-80.4954,25.1998],[-81.0799,25.1188],[-81.1709,25.2459],[-81.1468,25.4076],[-81.2899,25.6736],[-81.3838,25.7768],[-81.7271,25.9072],[-81.8446,26.3277],[-81.9236,26.4367],[-82.075,26.4221],[-82.1807,26.4763],[-82.3143,26.8584],[-82.743,27.5311],[-82.6507,27.5231],[-82.432,27.7681],[-82.4488,27.81],[-82.5539,27.8485],[-82.7331,27.613],[-82.7462,27.7313],[-82.8465,27.8543],[-82.8596,28.1741],[-82.7641,28.2443],[-82.6651,28.4844],[-82.6687,28.6957],[-82.7124,28.7209],[-82.7302,28.8502],[-82.6889,28.9056],[-82.8271,29.1584],[-82.9961,29.1781],[-83.0532,29.1308],[-83.0747,29.248],[-83.1696,29.2904],[-83.2405,29.4332],[-83.4015,29.5233],[-83.4147,29.6705],[-83.5376,29.7231],[-83.6792,29.9185],[-84.0007,30.0962],[-84.208,30.0848],[-84.3661,30.0087],[-84.3491,29.8968],[-84.5359,29.9101],[-84.5774,29.8878],[-84.565,29.8102],[-85.0451,29.587],[-85.2597,29.6813],[-85.3526,29.6598],[-85.4165,29.8426],[-85.3847,29.9209],[-85.8112,30.1783],[-86.2226,30.3436],[-86.633,30.3963],[-87.5183,30.2804],[-87.3666,30.4366],[-87.4447,30.5075],[-87.4002,30.6572],[-87.6349,30.8659]]]]}},
{"type":"Feature","properties":{"STATEFP":"17","STATENS":"01779784","GEOIDFQ":"0400000US17","GEOID":"17","STUSPS":"IL","NAME":"Illinois","LSAD":"00","ALAND":143778206717,"AWATER":6216848695},"geometry":{"type":"Polygon","coordinates":[[[-91.5063,40.2002],[-91.4697,40.3224],[-91.3729,40.3991],[-91.3743,40.5826],[-91.1208,40.6728],[-91.093,40.8211],[-90.9522,40.954],[-90.9572,41.1111],[-91.1142,41.25],[-91.0278,41.4236],[-90.4614,41.5235],[-90.3395,41.5986],[-90.3107,41.7422],[-90.1806,41.812],[-90.1612,42.1064],[-90.4007,42.2393],[-90.4463,42.357],[-90.6467,42.4719],[-90.6428,42.5085],[-87.8005,42.4919],[-87.8348,42.3015],[-87.5241,41.724],[-87.5316,39.3479],[-87.6004,39.3129],[-87.577,39.2111],[-87.6404,39.1667],[-87.5295,38.9719],[-87.5474,38.8756],[-87.4989,38.7578],[-87.832,38.3072],[-87.969,38.2374],[-87.9275,38.1519],[-88.0309,38.0307],[-88.0674,37.856],[-88.028,37.7992],[-88.1601,37.6543],[-88.0623,37.4878],[-88.4659,37.4005],[-88.5147,37.2909],[-88.4248,37.1499],[-88.4761,37.0682],[-88.9317,37.2276],[-89.058,37.1888],[-89.1681,37.0742],[-89.1329,36.9821],[-89.3595,37.0426],[-89.517,37.2819],[-89.4259,37.4075],[-89.5124,37.5298],[-89.5219,37.6965],[-89.851,37.904],[-89.9232,37.8707],[-89.9742,37.9192],[-89.9549,37.9666],[-90.2187,38.0944],[-90.3639,38.2364],[-90.3497,38.3776],[-90.1845,38.6115],[-90.2099,38.726],[-90.1133,38.8493],[-90.3958,38.96],[-90.4678,38.9618],[-90.5557,38.8708],[-90.6573,38.9203],[-90.73,39.2559],[-91.3678,39.729],[-91.3616,39.7875],[-91.4361,39.8455],[-91.5063,40.2002]]]}},
{"type":"Feature","properties":{"STATEFP":"30","STATENS":"00767982","GEOIDFQ":"0400000US30","GEOID":"30","STUSPS":"MT","NAME":"Montana","LSAD":"00","ALAND":376973404582,"AWATER":3866958878},"geometry":{"type":"Polygon","coordinates":[[[-116.0492,49.0009],[-104.0487,48.9999],[-104.0391,44.9985],[-111.0443,45.0013],[-111.049,44.4741],[-111.1227,44.4937],[-111.385,44.7551],[-111.5628,44.5552],[-111.8079,44.5117],[-111.8705,44.564],[-112.1251,44.5285],[-112.2862,44.5685],[-112.3589,44.5288],[-112.3874,44.4481],[-112.7078,44.503],[-112.8818,44.3803],[-113.0068,44.4717],[-113.1314,44.7647],[-113.4224,44.8426],[-113.4746,44.9108],[-113.452,45.0592],[-113.5747,45.1284],[-113.7356,45.3253],[-113.8067,45.6021],[-113.9716,45.7006],[-114.2518,45.5378],[-114.2792,45.4806],[-114.5063,45.5592],[-114.5381,45.6068],[-114.5049,45.7222],[-114.5625,45.7799],[-114.3882,45.8823],[-114.5147,46.1677],[-114.4459,46.1739],[-114.403,46.4987],[-114.3517,46.5081],[-114.3207,46.647],[-114.6215,46.6581],[-114.6267,46.7129],[-114.7672,46.7388],[-115.3269,47.2559],[-115.7103,47.4178],[-115.6347,47.4818],[-115.717,47.5327],[-115.7238,47.6967],[-116.0492,47.9999],[-116.0492,49.0009]]]}},
{"type":"Feature","properties":{"STATEFP":"27","STATENS":"00662849","GEOIDFQ":"0400000US27","GEOID":"27","STUSPS":"MN","NAME":"Minnesota","LSAD":"00","ALAND":206244791203,"AWATER":18937236061},"geometry":{"type":"Polygon","coordinates":[[[-97.229,49.0007],[-95.1537,48.9989],[-95.1533,49.3844],[-94.9521,49.3687],[-94.8162,49.321],[-94.6831,48.8839],[-94.6943,48.7894],[-94.5089,48.7004],[-93.844,48.6294],[-93.8152,48.5265],[-93.4675,48.5457],[-93.4643,48.5918],[-93.3475,48.6266],[-92.9549,48.6315],[-92.6349,48.5429],[-92.6571,48.4669],[-92.4563,48.4142],[-92.4699,48.3518],[-92.3692,48.2203],[-92.3147,48.2405],[-92.2623,48.3549],[-92.0552,48.3592],[-91.9808,48.2478],[-91.7149,48.1991],[-91.6924,48.1193],[-91.5593,48.1083],[-91.5425,48.0533],[-91.2501,48.0841],[-90.8436,48.2436],[-90.776,48.1222],[-90.7037,48.096],[-90.1362,48.1121],[-89.8682,47.9899],[-89.4892,48.0145],[-89.9743,47.8305],[-90.7359,47.6243],[-91.457,47.1392],[-92.0621,46.804],[-92.0153,46.7065],[-92.1433,46.7316],[-92.2055,46.6647],[-92.2922,46.6632],[-92.294,46.0744],[-92.3518,46.0157],[-92.6561,45.9244],[-92.8697,45.7151],[-92.8811,45.5734],[-92.7569,45.5575],[-92.6468,45.4379],[-92.7619,45.2849],[-92.7405,45.1134],[-92.8029,45.0654],[-92.7508,44.9416],[-92.8053,44.7684],[-92.5493,44.5777],[-92.3615,44.5589],[-92.2325,44.4454],[-91.9636,44.3621],[-91.8173,44.1642],[-91.4405,44.0015],[-91.244,43.773],[-91.2733,43.6666],[-91.2177,43.5006],[-96.4533,43.5004],[-96.4578,45.3076],[-96.5218,45.3756],[-96.7108,45.4369],[-96.8516,45.6194],[-96.5871,45.8164],[-96.5545,46.084],[-96.601,46.3196],[-96.7091,46.4353],[-96.7905,46.6369],[-96.764,46.9125],[-96.8335,47.0101],[-96.8541,47.572],[-97.1467,48.1686],[-97.1491,48.5323],[-97.1,48.6679],[-97.229,49.0007]]]}},
{"type":"Feature","properties":{"STATEFP":"24","STATENS":"01714934","GEOIDFQ":"0400000US24","GEOID":"24","STUSPS":"MD","NAME":"Maryland","LSAD":"00","ALAND":25151223822,"AWATER":6979843236},"geometry":{"type":"MultiPolygon","coordinates":[[[[-76.0462,38.0255],[-75.9801,38.0049],[-75.9846,37.9381],[-76.0465,37.9536],[-76.0462,38.0255]]],[[[-79.4869,39.206],[-79.4767,39.7211],[-75.7886,39.7222],[-75.6937,38.4601],[-75.0489,38.4513],[-75.2423,38.0272],[-75.6243,37.9942],[-75.6697,37.9508],[-75.7838,37.9726],[-75.8927,37.9168],[-75.8638,38.101],[-75.9371,38.1242],[-75.9424,38.1871],[-75.8641,38.2009],[-75.8885,38.2414],[-76.0389,38.2549],[-76.0059,38.0772],[-76.0955,38.1251],[-76.0886,38.1926],[-76.2577,38.3249],[-76.3364,38.4922],[-76.2775,38.5419],[-76.2796,38.6095],[-76.1654,38.6102],[-76.1752,38.6732],[-76.2387,38.7128],[-76.348,38.6862],[-76.3903,38.757],[-76.2716,38.8518],[-76.1911,38.8297],[-76.2036,38.9284],[-76.3179,38.9113],[-76.3762,38.8505],[-76.3617,38.9392],[-76.3018,39.0397],[-76.2318,39.0185],[-76.2785,39.1458],[-76.1597,39.3359],[-76.0069,39.4145],[-76.0123,39.4531],[-76.5258,39.1779],[-76.4287,39.1317],[-76.3941,39.0113],[-76.4713,38.9565],[-76.4899,38.8387],[-76.5587,38.7564],[-76.4927,38.4828],[-76.3934,38.3895],[-76.3221,38.0365],[-76.5906,38.2142],[-76.8643,38.2689],[-76.9755,38.3473],[-77.0164,38.4456],[-77.2112,38.3807],[-77.26,38.4358],[-77.2466,38.5383],[-77.1291,38.6144],[-77.1325,38.6738],[-76.9094,38.8929],[-77.041,38.9955],[-77.1198,38.9343],[-77.2498,38.9859],[-77.2484,39.0269],[-77.4626,39.0762],[-77.5212,39.1611],[-77.4599,39.2187],[-77.5882,39.302],[-77.7195,39.3213],[-77.8298,39.5873],[-78.0067,39.6013],[-78.0823,39.6712],[-78.383,39.6222],[-78.4609,39.526],[-78.5907,39.5302],[-78.7071,39.5559],[-78.7711,39.6384],[-78.9567,39.4403],[-79.0913,39.4724],[-79.4869,39.206]]]]}},
{"type":"Feature","properties":{"STATEFP":"19","STATENS":"01779785","GEOIDFQ":"0400000US19","GEOID":"19","STUSPS":"IA","NAME":"Iowa","LSAD":"00","ALAND":144660344616,"AWATER":1085343719},"geometry":{"type":"Polygon","coordinates":[[[-96.6247,42.7255],[-96.4393,43.1139],[-96.4756,43.2211],[-96.5788,43.2911],[-96.5304,43.3],[-96.5216,43.3856],[-96.5943,43.4342],[-96.5989,43.5005],[-91.2177,43.5006],[-91.2074,43.3737],[-91.0579,43.254],[-91.1753,43.1347],[-91.0707,42.7755],[-90.9416,42.6838],[-90.7009,42.6264],[-90.6467,42.4719],[-90.4463,42.357],[-90.4007,42.2393],[-90.1612,42.1064],[-90.1406,41.996],[-90.1806,41.812],[-90.3107,41.7422],[-90.3641,41.5796],[-90.7012,41.4547],[-91.0278,41.4236],[-91.1142,41.25],[-90.9572,41.1111],[-90.9522,40.954],[-91.093,40.8211],[-91.1208,40.6728],[-91.3743,40.5826],[-91.3729,40.3991],[-91.4194,40.3783],[-91.7291,40.6136],[-95.7656,40.5852],[-95.7819,40.6533],[-95.8887,40.7363],[-95.8107,40.8867],[-95.8659,41.0174],[-95.8568,41.1871],[-95.9097,41.1844],[-95.9225,41.4558],[-95.983,41.4698],[-96.0051,41.544],[-96.0805,41.5282],[-96.1181,41.6135],[-96.0645,41.793],[-96.1591,41.9101],[-96.1325,41.9746],[-96.2729,42.0472],[-96.2689,42.1136],[-96.3478,42.1668],[-96.336,42.2648],[-96.408,42.3374],[-96.3813,42.4617],[-96.493,42.5173],[-96.477,42.5561],[-96.6247,42.7255]]]}},
{"type":"Feature","properties":{"STATEFP":"11","STATENS":"01702382","GEOIDFQ":"0400000US11","GEOID":"11","STUSPS":"DC","NAME":"District of Columbia","LSAD":"00","ALAND":158316181,"AWATER":18709785},"geometry":{"type":"Polygon","coordinates":[[[-77.1198,38.9343],[-77.041,38.9955],[-76.9094,38.8929],[-77.039,38.7916],[-77.0391,38.8681],[-77.1198,38.9343]]]}},
{"type":"Feature","properties":{"STATEFP":"39","STATENS":"01085497","GEOIDFQ":"0400000US39","GEOID":"39","STUSPS":"OH","NAME":"Ohio","LSAD":"00","ALAND":105824130554,"AWATER":10274225585},"geometry":{"type":"MultiPolygon","coordinates":[[[[-82.8633,41.6937],[-82.7827,41.694],[-82.7889,41.643],[-82.8421,41.6283],[-82.8633,41.6937]]],[[[-84.8202,39.1055],[-84.8061,41.6961],[-83.4538,41.7326],[-82.9344,41.5144],[-82.8341,41.5876],[-82.7179,41.5419],[-82.6169,41.4284],[-82.4606,41.3863],[-81.9946,41.5144],[-81.7388,41.4885],[-81.2869,41.7602],[-80.5194,41.9775],[-80.519,40.6388],[-80.668,40.5825],[-80.6049,40.4467],[-80.6066,40.3039],[-80.8699,39.7636],[-80.8298,39.7118],[-81.1285,39.4494],[-81.3476,39.3458],[-81.4561,39.4093],[-81.5596,39.3308],[-81.5652,39.2762],[-81.6783,39.2738],[-81.7528,39.1847],[-81.743,39.1066],[-81.8079,39.084],[-81.7757,38.9807],[-81.8274,38.9459],[-81.8985,38.9296],[-81.9418,38.9933],[-82.0416,39.0179],[-82.2093,38.8027],[-82.1752,38.6085],[-82.2743,38.5937],[-82.324,38.4493],[-82.5937,38.4218],[-82.7248,38.5576],[-82.8513,38.6043],[-82.8892,38.7561],[-83.2865,38.5992],[-83.5333,38.7021],[-83.6795,38.63],[-83.7722,38.6581],[-83.8521,38.7514],[-84.2129,38.8057],[-84.3265,39.0275],[-84.462,39.1218],[-84.6079,39.0732],[-84.7507,39.1474],[-84.8202,39.1055]]]]}},
{"type":"Feature","properties":{"STATEFP":"31","STATENS":"01779792","GEOIDFQ":"0400000US31","GEOID":"31","STUSPS":"NE","NAME":"Nebraska","LSAD":"00","ALAND":198949953125,"AWATER":1378956981},"geometry":{"type":"Polygon","coordinates":[[[-104.0532,41.0014],[-104.0531,43.0006],[-98.4985,42.9986],[-98.4345,42.9292],[-98.035,42.7642],[-97.9501,42.7696],[-97.858,42.8651],[-97.3021,42.8657],[-97.1313,42.7719],[-96.6976,42.6591],[-96.7093,42.6038],[-96.6115,42.5061],[-96.3813,42.4617],[-96.408,42.3374],[-96.336,42.2648],[-96.3478,42.1668],[-96.2689,42.1136],[-96.2729,42.0472],[-96.1325,41.9746],[-96.1591,41.9101],[-96.0645,41.793],[-96.1181,41.6135],[-96.0805,41.5282],[-96.0051,41.544],[-95.983,41.4698],[-95.9225,41.4558],[-95.9097,41.1844],[-95.8568,41.1871],[-95.8659,41.0174],[-95.8107,40.8867],[-95.8887,40.7363],[-95.7486,40.6034],[-95.7571,40.526],[-95.6947,40.4936],[-95.6537,40.3226],[-95.4725,40.2361],[-95.481,40.1885],[-95.3942,40.1083],[-95.4147,40.0698],[-95.3083,40.0],[-102.0517,40.0031],[-102.0516,41.0024],[-104.0532,41.0014]]]}},
{"type":"Feature","properties":{"STATEFP":"53","STATENS":"01779804","GEOIDFQ":"0400000US53","GEOID":"53","STUSPS":"WA","NAME":"Washington","LSAD":"00","ALAND":172118798160,"AWATER":12549101417},"geometry":{"type":"MultiPolygon","coordinates":[[[[-123.2371,48.6835],[-123.0704,48.7],[-122.9379,48.7903],[-122.8184,48.7446],[-122.743,48.662],[-122.799,48.6047],[-122.8035,48.4287],[-123.1415,48.5053],[-123.2371,48.6835]]],[[[-124.7258,48.386],[-124.0507,48.1777],[-123.3146,48.1137],[-123.1448,48.1759],[-123.0041,48.0905],[-122.7604,48.1432],[-122.6985,48.1031],[-122.7013,47.973],[-122.6511,47.921],[-122.5429,47.9964],[-122.6073,48.031],[-122.6332,48.1633],[-122.7526,48.2601],[-122.6653,48.4165],[-122.6891,48.4768],[-122.6426,48.5883],[-122.7325,48.8381],[-122.8216,48.9414],[-122.758,49.0024],[-117.0324,48.9992],[-117.0627,46.3536],[-116.924,46.1709],[-116.982,46.0849],[-116.916,45.9954],[-118.9871,45.9999],[-119.1261,45.9329],[-119.6006,45.9196],[-119.6699,45.8569],[-119.9657,45.8244],[-120.2108,45.7259],[-120.5059,45.7],[-120.635,45.7458],[-120.8956,45.6429],[-121.1838,45.6064],[-121.2158,45.6712],[-121.5331,45.7265],[-121.8672,45.6933],[-122.2626,45.5443],[-122.6439,45.6097],[-122.7745,45.6804],[-122.814,45.961],[-122.9041,46.0837],[-123.1159,46.1853],[-123.3714,46.1464],[-123.4796,46.2691],[-123.6695,46.2668],[-123.7008,46.3053],[-123.8755,46.2398],[-123.9694,46.2914],[-124.0807,46.2672],[-124.0696,46.6307],[-123.9233,46.6727],[-124.081,46.735],[-124.1801,46.9264],[-124.1885,47.1579],[-124.2363,47.2873],[-124.3194,47.3556],[-124.4121,47.6912],[-124.6724,47.9644],[-124.7217,48.1532],[-124.6693,48.2964],[-124.7258,48.386]]]]}},
{"type":"Feature","properties":{"STATEFP":"46","STATENS":"01785534","GEOIDFQ":"0400000US46","GEOID":"46","STUSPS":"SD","NAME":"South Dakota","LSAD":"00","ALAND":196341670967,"AWATER":3387563375},"geometry":{"type":"Polygon","coordinates":[[[-104.0531,43.0006],[-104.0454,45.9453],[-96.5637,45.9352],[-96.5871,45.8164],[-96.8516,45.6194],[-96.7108,45.4369],[-96.5218,45.3756],[-96.4578,45.3076],[-96.4533,43.5004],[-96.5989,43.5005],[-96.5943,43.4342],[-96.5216,43.3856],[-96.5304,43.3],[-96.5788,43.2911],[-96.4756,43.2211],[-96.4393,43.1139],[-96.5116,43.0399],[-96.5003,42.9594],[-96.6247,42.7255],[-96.4455,42.4906],[-96.6115,42.5061],[-96.7093,42.6038],[-96.6976,42.6591],[-97.1313,42.7719],[-97.2379,42.8531],[-97.858,42.8651],[-97.9501,42.7696],[-98.035,42.7642],[-98.4345,42.9292],[-98.4985,42.9986],[-104.0531,43.0006]]]}},
{"type":"Feature","properties":{"STATEFP":"05","STATENS":"00068085","GEOIDFQ":"0400000US05","GEOID":"05","STUSPS":"AR","NAME":"Arkansas","LSAD":"00","ALAND":134658517854,"AWATER":3122715710},"geometry":{"type":"Polygon","coordinates":[[[-94.6179,36.4994],[-90.1539,36.4953],[-90.131,36.4151],[-90.0661,36.3863],[-90.064,36.303],[-90.3687,35.9958],[-89.7331,36.0006],[-89.6473,35.8949],[-89.7226,35.8737],[-89.7234,35.8094],[-89.9155,35.7549],[-89.9566,35.6955],[-89.8765,35.6267],[-89.9585,35.5417],[-90.0376,35.5503],[-90.0221,35.4574],[-90.1125,35.4102],[-90.0879,35.3633],[-90.1666,35.2746],[-90.0979,35.25],[-90.0906,35.1183],[-90.1601,35.1288],[-90.1971,35.0507],[-90.3007,35.0288],[-90.2501,34.9073],[-90.4638,34.8349],[-90.5872,34.6157],[-90.5492,34.5681],[-90.5753,34.4151],[-90.6604,34.3358],[-90.7652,34.3428],[-90.7527,34.2893],[-90.8946,34.2244],[-90.9463,34.1094],[-90.8745,34.072],[-90.8924,34.0269],[-91.0887,33.9613],[-91.036,33.9438],[-91.0268,33.7636],[-91.1433,33.7471],[-91.0754,33.7144],[-91.101,33.6605],[-91.1783,33.6511],[-91.1309,33.6109],[-91.2157,33.5294],[-91.1138,33.3931],[-91.1255,33.2803],[-91.0687,33.2329],[-91.1043,33.1316],[-91.1808,33.0984],[-91.1204,33.0545],[-91.1661,33.0041],[-94.043,33.0192],[-94.0434,33.5514],[-94.1834,33.5922],[-94.3542,33.5565],[-94.4859,33.6379],[-94.4315,35.3696],[-94.6179,36.4994]]]}},
{"type":"Feature","properties":{"STATEFP":"28","STATENS":"01779790","GEOIDFQ":"0400000US28","GEOID":"28","STUSPS":"MS","NAME":"Mississippi","LSAD":"00","ALAND":121534116434,"AWATER":3914302814},"geometry":{"type":"Polygon","coordinates":[[[-91.6444,31.2344],[-91.5089,31.2916],[-91.5171,31.4984],[-91.4376,31.5462],[-91.4638,31.6204],[-91.3957,31.6442],[-91.3809,31.7325],[-91.3186,31.7453],[-91.3457,31.8429],[-91.2901,31.8337],[-91.1811,31.9201],[-91.1774,31.9733],[-91.0347,32.101],[-91.1085,32.2081],[-90.9912,32.2147],[-90.9212,32.3421],[-90.9867,32.3518],[-90.966,32.4248],[-91.0529,32.4384],[-91.0605,32.5124],[-91.0113,32.5166],[-91.0988,32.6853],[-91.057,32.7256],[-91.1576,32.776],[-91.0721,32.9378],[-91.1661,33.0041],[-91.1204,33.0545],[-91.1808,33.0984],[-91.1043,33.1316],[-91.0687,33.2329],[-91.1255,33.2803],[-91.1138,33.3931],[-91.2157,33.5294],[-91.1309,33.6109],[-91.1783,33.6511],[-91.101,33.6605],[-91.0754,33.7144],[-91.1433,33.7471],[-91.0268,33.7636],[-91.036,33.9438],[-91.0887,33.9613],[-90.8924,34.0269],[-90.8745,34.072],[-90.9463,34.1094],[-90.8946,34.2244],[-90.7527,34.2893],[-90.7652,34.3428],[-90.6604,34.3358],[-90.5753,34.4151],[-90.5492,34.5681],[-90.5872,34.6157],[-90.4638,34.8349],[-90.2501,34.9073],[-90.3093,34.9957],[-88.2001,34.9956],[-88.0979,34.8922],[-88.4687,31.9332],[-88.4099,30.3421],[-88.9712,30.3908],[-89.3447,30.2932],[-89.5245,30.1807],[-89.6077,30.2171],[-89.8219,30.644],[-89.8363,30.7272],[-89.7281,31.0024],[-91.6369,30.9994],[-91.5604,31.0495],[-91.6217,31.1369],[-91.5901,31.1937],[-91.6444,31.2344]]]}},
{"type":"Feature","properties":{"STATEFP":"08","STATENS":"01779779","GEOIDFQ":"0400000US08","GEOID":"08","STUSPS":"CO","NAME":"Colorado","LSAD":"00","ALAND":268418973518,"AWATER":1185541418},"geometry":{"type":"Polygon","coordinates":[[[-109.0452,36.9991],[-109.0501,41.0007],[-102.0516,41.0024],[-102.0422,36.9931],[-109.0452,36.9991]]]}},
{"type":"Feature","properties":{"STATEFP":"37","STATENS":"01027616","GEOIDFQ":"0400000US37","GEOID":"37","STUSPS":"NC","NAME":"North Carolina","LSAD":"00","ALAND":125935965771,"AWATER":13453455061},"geometry":{"type":"Polygon","coordinates":[[[-84.2866,35.2058],[-84.2237,35.2691],[-84.0975,35.2474],[-84.0235,35.2958],[-84.0218,35.4074],[-83.7717,35.5621],[-83.4983,35.563],[-83.1615,35.7634],[-82.9784,35.7826],[-82.8997,35.8746],[-82.9106,35.9269],[-82.8161,35.924],[-82.7794,35.9925],[-82.6284,36.0621],[-82.6109,35.9744],[-82.5579,35.9539],[-82.2977,36.1335],[-82.0287,36.1243],[-81.9081,36.302],[-81.8332,36.3473],[-81.706,36.3385],[-81.7343,36.4133],[-81.6775,36.5881],[-80.2952,36.544],[-75.867,36.5508],[-75.7964,36.2903],[-75.4587,35.5966],[-75.5336,35.2258],[-75.7579,35.1831],[-76.1373,34.9879],[-76.3868,34.7846],[-76.5359,34.5886],[-76.6187,34.6725],[-76.9063,34.6828],[-77.1368,34.6329],[-77.4629,34.4714],[-77.764,34.2456],[-77.9602,33.8533],[-78.2761,33.9124],[-78.5411,33.8511],[-79.6753,34.8047],[-80.797,34.8239],[-80.782,34.9358],[-80.9349,35.1074],[-81.0415,35.0447],[-81.0429,35.1492],[-82.4113,35.2025],[-83.1086,35.0007],[-84.3219,34.9884],[-84.2866,35.2058]]]}},
{"type":"Feature","properties":{"STATEFP":"49","STATENS":"01455989","GEOIDFQ":"0400000US49","GEOID":"49","STUSPS":"UT","NAME":"Utah","LSAD":"00","ALAND":213921882299,"AWATER":5963163952},"geometry":{"type":"Polygon","coordinates":[[[-114.0506,37.0004],[-114.0417,41.9937],[-111.0467,42.0016],[-111.0467,40.998],[-109.0501,41.0007],[-109.0452,36.9991],[-114.0506,37.0004]]]}},
{"type":"Feature","properties":{"STATEFP":"40","STATENS":"01102857","GEOIDFQ":"0400000US40","GEOID":"40","STUSPS":"OK","NAME":"Oklahoma","LSAD":"00","ALAND":177664629521,"AWATER":3373250292},"geometry":{"type":"Polygon","coordinates":[[[-103.0024,36.5004],[-103.0022,37.0001],[-94.618,36.9989],[-94.6179,36.4994],[-94.4315,35.3696],[-94.4859,33.6379],[-94.8416,33.7394],[-95.2264,33.962],[-95.2834,33.8777],[-95.3523,33.8678],[-95.6037,33.9272],[-95.8206,33.8585],[-96.1516,33.8319],[-96.3631,33.6942],[-96.6599,33.9167],[-96.7124,33.8316],[-96.8506,33.8472],[-96.9053,33.9472],[-96.9523,33.9446],[-97.0558,33.8557],[-97.0911,33.7351],[-97.1494,33.722],[-97.2061,33.9143],[-97.4442,33.8238],[-97.4865,33.917],[-97.5583,33.8971],[-97.6718,33.9914],[-97.8658,33.8494],[-97.9512,33.8784],[-97.9476,33.9911],[-98.0828,34.0024],[-98.1234,34.1545],[-98.1691,34.1142],[-98.364,34.1571],[-98.4751,34.0643],[-98.6481,34.1644],[-98.7372,34.131],[-98.9402,34.2037],[-99.1895,34.2143],[-99.2116,34.314],[-99.3504,34.4371],[-99.395,34.4421],[-99.4204,34.3805],[-99.6965,34.381],[-99.9293,34.5767],[-100.0004,34.5605],[-100.0004,36.4997],[-103.0024,36.5004]]]}},
{"type":"Feature","properties":{"STATEFP":"56","STATENS":"01779807","GEOIDFQ":"0400000US56","GEOID":"56","STUSPS":"WY","NAME":"Wyoming","LSAD":"00","ALAND":251458190512,"AWATER":1868025485},"geometry":{"type":"Polygon","coordinates":[[[-111.0467,40.998],[-111.0443,45.0013],[-104.0577,44.9974],[-104.0532,41.0014],[-111.0467,40.998]]]}},
{"type":"Feature","properties":{"STATEFP":"54","STATENS":"01779805","GEOIDFQ":"0400000US54","GEOID":"54","STUSPS":"WV","NAME":"West Virginia","LSAD":"00","ALAND":62266513826,"AWATER":488918898},"geometry":{"type":"Polygon","coordinates":[[[-82.6262,38.1348],[-82.5937,38.4218],[-82.324,38.4493],[-82.2743,38.5937],[-82.1752,38.6085],[-82.2093,38.8027],[-82.0416,39.0179],[-81.9418,38.9933],[-81.8985,38.9296],[-81.8274,38.9459],[-81.7757,38.9807],[-81.8079,39.084],[-81.743,39.1066],[-81.7528,39.1847],[-81.6783,39.2738],[-81.5652,39.2762],[-81.5596,39.3308],[-81.4561,39.4093],[-81.3476,39.3458],[-81.2491,39.39],[-80.8656,39.6627],[-80.8298,39.7118],[-80.8699,39.7636],[-80.6066,40.3039],[-80.6049,40.4467],[-80.668,40.5825],[-80.6272,40.6199],[-80.519,40.6388],[-80.5193,39.7214],[-79.4767,39.7211],[-79.4869,39.206],[-79.0913,39.4724],[-78.9567,39.4403],[-78.7711,39.6384],[-78.7071,39.5559],[-78.4609,39.526],[-78.383,39.6222],[-78.0823,39.6712],[-78.0067,39.6013],[-77.8298,39.5873],[-77.7195,39.3213],[-77.8282,39.1323],[-78.3471,39.466],[-78.3405,39.3535],[-78.4018,39.2768],[-78.4139,39.1584],[-78.5617,39.009],[-78.7728,38.8937],[-78.8693,38.763],[-78.999,38.8401],[-79.2978,38.4164],[-79.4766,38.4572],[-79.5426,38.5532],[-79.6491,38.5915],[-79.6897,38.4314],[-79.8041,38.3139],[-79.7875,38.2733],[-79.9162,38.1844],[-79.9712,38.0443],[-80.2923,37.6837],[-80.2234,37.6232],[-80.2916,37.5365],[-80.4648,37.4261],[-80.5448,37.4747],[-80.7701,37.3724],[-80.8651,37.4199],[-80.8355,37.3348],[-81.2251,37.2349],[-81.3622,37.3377],[-81.5606,37.2067],[-81.6786,37.2025],[-81.8499,37.2852],[-81.9849,37.4543],[-81.9323,37.512],[-82.2961,37.6862],[-82.4876,37.917],[-82.465,37.9769],[-82.6262,38.1348]]]}},
{"type":"Feature","properties":{"STATEFP":"18","STATENS":"00448508","GEOIDFQ":"0400000US18","GEOID":"18","STUSPS":"IN","NAME":"Indiana","LSAD":"00","ALAND":92786694938,"AWATER":1543916881},"geometry":{"type":"Polygon","coordinates":[[[-88.0595,37.8667],[-88.0309,38.0307],[-87.9275,38.1519],[-87.969,38.2374],[-87.832,38.3072],[-87.4989,38.7578],[-87.5474,38.8756],[-87.5295,38.9719],[-87.6404,39.1667],[-87.577,39.2111],[-87.6004,39.3129],[-87.5316,39.3479],[-87.524,41.7083],[-87.2615,41.6203],[-86.8248,41.7602],[-84.8059,41.7602],[-84.8202,39.1055],[-84.8972,39.0524],[-84.8326,38.9615],[-84.8778,38.9204],[-84.7864,38.8822],[-84.8129,38.7861],[-84.9625,38.778],[-85.1873,38.6876],[-85.2755,38.7412],[-85.4489,38.7134],[-85.4331,38.5239],[-85.5878,38.4505],[-85.6836,38.2955],[-85.8162,38.283],[-85.8948,38.1885],[-85.9224,38.0287],[-86.0334,37.9704],[-86.2064,38.0219],[-86.3213,38.1474],[-86.5218,38.0383],[-86.5094,37.9029],[-86.5998,37.9068],[-86.6152,37.8529],[-86.7222,37.8926],[-86.8109,37.9971],[-87.0103,37.9197],[-87.1056,37.7676],[-87.4186,37.9448],[-87.5513,37.9254],[-87.6259,37.8519],[-87.9217,37.9079],[-87.9038,37.8178],[-87.9703,37.7819],[-88.0595,37.8667]]]}},
{"type":"Feature","properties":{"STATEFP":"25","STATENS":"00606926","GEOIDFQ":"0400000US25","GEOID":"25","STUSPS":"MA","NAME":"Massachusetts","LSAD":"00","ALAND":20204400635,"AWATER":7130649971},"geometry":{"type":"MultiPolygon","coordinates":[[[[-70.2755,41.3105],[-70.0791,41.3195],[-70.0491,41.3917],[-69.9849,41.3588],[-69.9602,41.2645],[-70.2115,41.2488],[-70.2755,41.3105]]],[[[-70.8338,41.3534],[-70.6036,41.4824],[-70.4638,41.4191],[-70.4483,41.3537],[-70.6936,41.3428],[-70.8213,41.251],[-70.8338,41.3534]]],[[[-73.5081,42.0863],[-73.265,42.7459],[-71.2942,42.697],[-71.0312,42.8591],[-70.8173,42.8723],[-70.7723,42.7111],[-70.7298,42.6696],[-70.6025,42.6777],[-70.594,42.635],[-70.6547,42.5822],[-70.8485,42.5502],[-70.836,42.4905],[-70.983,42.424],[-70.9674,42.2682],[-70.8812,42.3007],[-70.7306,42.2109],[-70.6385,42.0816],[-70.6625,41.9606],[-70.5464,41.9168],[-70.541,41.8158],[-70.4417,41.7529],[-70.2723,41.7213],[-70.0247,41.7874],[-70.0061,41.8524],[-70.069,41.8849],[-70.0838,42.012],[-70.2454,42.0637],[-70.0494,42.0647],[-69.936,41.8094],[-69.9311,41.6227],[-70.0112,41.5439],[-70.007,41.6716],[-70.3216,41.6305],[-70.9484,41.4092],[-70.935,41.4547],[-70.6982,41.559],[-70.6954,41.6025],[-70.7655,41.6416],[-70.9817,41.5101],[-71.1206,41.4974],[-71.1329,41.6601],[-71.3294,41.7826],[-71.3814,42.0188],[-72.7355,42.0364],[-72.8101,41.9983],[-72.8471,42.0369],[-73.4873,42.0496],[-73.5081,42.0863]]]]}},
{"type":"Feature","properties":{"STATEFP":"32","STATENS":"01779793","GEOIDFQ":"0400000US32","GEOID":"32","STUSPS":"NV","NAME":"Nevada","LSAD":"00","ALAND":284537045743,"AWATER":1839880833},"geometry":{"type":"Polygon","coordinates":[[[-120.001,38.9996],[-119.9992,41.9945],[-114.0417,41.9937],[-114.0468,36.1941],[-114.1517,36.0246],[-114.2137,36.0156],[-114.3721,36.1431],[-114.7362,36.1044],[-114.7312,35.9439],[-114.6697,35.8651],[-114.7037,35.8146],[-114.6645,35.4495],[-114.5727,35.1387],[-114.6199,35.1216],[-114.6335,35.0019],[-117.2449,37.0302],[-120.001,38.9996]]]}},
{"type":"Feature","properties":{"STATEFP":"38","STATENS":"01779797","GEOIDFQ":"0400000US38","GEOID":"38","STUSPS":"ND","NAME":"North Dakota","LSAD":"00","ALAND":178694319927,"AWATER":4414770689},"geometry":{"type":"Polygon","coordinates":[[[-104.0487,48.9999],[-97.229,49.0007],[-97.1,48.6679],[-97.1491,48.5323],[-97.1467,48.1686],[-96.8541,47.572],[-96.8335,47.0101],[-96.764,46.9125],[-96.7905,46.6369],[-96.7091,46.4353],[-96.601,46.3196],[-96.5637,45.9352],[-104.0454,45.9453],[-104.0487,48.9999]]]}},
{"type":"Feature","properties":{"STATEFP":"42","STATENS":"01779798","GEOIDFQ":"0400000US42","GEOID":"42","STUSPS":"PA","NAME":"Pennsylvania","LSAD":"00","ALAND":115881476238,"AWATER":3397613881},"geometry":{"type":"Polygon","coordinates":[[[-80.5193,39.7214],[-80.5194,41.9775],[-79.762,42.2699],[-79.7613,41.9988],[-75.3411,41.9928],[-75.263,41.8851],[-75.0744,41.8022],[-75.0439,41.5751],[-74.9825,41.4965],[-74.7349,41.4258],[-74.6949,41.3574],[-74.8157,41.2962],[-74.9053,41.1557],[-75.1331,40.9802],[-75.0654,40.8857],[-75.1926,40.7159],[-75.1867,40.5694],[-75.0785,40.5483],[-75.0561,40.4161],[-74.9696,40.3998],[-74.7216,40.1538],[-75.1192,39.9654],[-75.1334,39.8962],[-75.4151,39.8019],[-75.6628,39.8214],[-75.7738,39.7222],[-80.5193,39.7214]]]}},
{"type":"Feature","properties":{"STATEFP":"45","STATENS":"01779799","GEOIDFQ":"0400000US45","GEOID":"45","STUSPS":"SC","NAME":"South Carolina","LSAD":"00","ALAND":77865663223,"AWATER":5074780894},"geometry":{"type":"Polygon","coordinates":[[[-83.3532,34.7286],[-83.1086,35.0007],[-82.4113,35.2025],[-81.0429,35.1492],[-81.0415,35.0447],[-80.9349,35.1074],[-80.782,34.9358],[-80.797,34.8239],[-79.6753,34.8047],[-78.5411,33.8511],[-78.7727,33.7685],[-78.9381,33.6398],[-79.1354,33.4039],[-79.1724,33.2066],[-79.3299,33.09],[-79.36,33.0067],[-79.5807,33.0064],[-79.6066,32.9722],[-79.5698,32.9267],[-80.0008,32.6059],[-80.3384,32.4787],[-80.4657,32.4953],[-80.4552,32.3265],[-80.5964,32.2735],[-80.7146,32.3257],[-80.766,32.2926],[-80.6692,32.2168],[-80.8587,32.0996],[-80.8855,32.0346],[-81.1133,32.1132],[-81.133,32.3348],[-81.1948,32.4651],[-81.3971,32.6056],[-81.4206,32.8312],[-81.502,33.0151],[-81.7551,33.1515],[-81.7635,33.2036],[-81.8465,33.2417],[-81.8461,33.3038],[-81.9327,33.3435],[-81.9263,33.4629],[-82.1619,33.6106],[-82.3245,33.82],[-82.5568,33.9454],[-82.7154,34.1482],[-82.8738,34.4715],[-83.0483,34.4933],[-83.3532,34.7286]]]}},
{"type":"Feature","properties":{"STATEFP":"23","STATENS":"01779787","GEOIDFQ":"0400000US23","GEOID":"23","STUSPS":"ME","NAME":"Maine","LSAD":"00","ALAND":79888396620,"AWATER":11745065493},"geometry":{"type":"MultiPolygon","coordinates":[[[[-68.9444,43.8353],[-68.8748,43.9047],[-68.849,43.8498],[-68.8885,43.8038],[-68.9444,43.8353]]],[[[-71.0839,45.3054],[-70.9494,45.3315],[-70.8444,45.2345],[-70.8256,45.4003],[-70.7815,45.4312],[-70.6347,45.3836],[-70.7234,45.5104],[-70.5528,45.6678],[-70.3835,45.7349],[-70.4157,45.7862],[-70.2591,45.8908],[-70.3176,46.0191],[-70.2396,46.1428],[-70.2909,46.1858],[-70.2074,46.3313],[-70.0537,46.4292],[-69.9971,46.6952],[-69.22,47.4572],[-69.0393,47.4222],[-69.0402,47.2451],[-68.901,47.1785],[-68.5887,47.2817],[-68.3756,47.2923],[-68.3616,47.3556],[-68.2697,47.3537],[-67.7898,47.0657],[-67.7504,45.9179],[-67.8037,45.8694],[-67.764,45.83],[-67.8033,45.6779],[-67.4554,45.6047],[-67.4174,45.502],[-67.4769,45.4972],[-67.4272,45.3737],[-67.4803,45.2682],[-67.3399,45.1256],[-67.2711,45.1911],[-67.1612,45.1629],[-66.9499,44.8174],[-67.2934,44.5993],[-67.4485,44.6003],[-67.5032,44.4769],[-67.5797,44.4291],[-67.6531,44.5258],[-67.7936,44.4948],[-67.8996,44.3941],[-68.014,44.3903],[-68.0493,44.3307],[-68.1256,44.3871],[-68.1892,44.3738],[-68.1736,44.3284],[-68.2295,44.2669],[-68.1743,44.2259],[-68.3065,44.2348],[-68.331,44.1076],[-68.5029,44.0997],[-68.6171,44.0101],[-68.657,44.0038],[-68.6694,44.0764],[-68.8741,44.0254],[-68.9353,44.1304],[-68.8886,44.1595],[-69.0402,44.2337],[-69.077,43.9737],[-69.175,43.9769],[-69.321,43.8567],[-69.3933,43.9564],[-69.5033,43.8377],[-69.7171,43.7924],[-69.8335,43.7013],[-69.9156,43.7751],[-70.1682,43.6751],[-70.2061,43.5576],[-70.3612,43.5292],[-70.3856,43.487],[-70.3273,43.4585],[-70.4163,43.3611],[-70.5539,43.3219],[-70.5962,43.1635],[-70.7038,43.0598],[-70.8281,43.1291],[-70.8131,43.2173],[-70.9843,43.3761],[-70.9548,43.5098],[-71.0839,45.3054]]]]}},
{"type":"Feature","properties":{"STATEFP":"15","STATENS":"01779782","GEOIDFQ":"0400000US15","GEOID":"15","STUSPS":"HI","NAME":"Hawaii","LSAD":"00","ALAND":16634423918,"AWATER":11777375352},"geometry":{"type":"MultiPolygon","coordinates":[[[[-156.0644,19.7308],[-155.8319,19.9828],[-155.9028,20.1771],[-155.8533,20.2716],[-155.1666,19.9379],[-155.0863,19.8554],[-155.0871,19.728],[-155.0064,19.7393],[-154.9743,19.6332],[-154.816,19.5007],[-155.0205,19.3313],[-155.2646,19.2742],[-155.5053,19.1379],[-155.672,18.9175],[-155.8815,19.0366],[-155.9142,19.0991],[-155.8887,19.348],[-156.0644,19.7308]]],[[[-156.6999,20.9206],[-156.6196,21.0278],[-156.5628,21.0162],[-156.4811,20.8982],[-156.2426,20.9379],[-156.0035,20.7956],[-155.9854,20.7443],[-156.1299,20.6275],[-156.3776,20.5784],[-156.4319,20.5981],[-156.4736,20.7908],[-156.6318,20.8212],[-156.6999,20.9206]]],[[[-156.7023,20.5325],[-156.5671,20.6049],[-156.5396,20.5276],[-156.6688,20.5047],[-156.7023,20.5325]]],[[[-157.0591,20.9134],[-156.9375,20.9253],[-156.8085,20.8204],[-156.8383,20.7646],[-156.9679,20.7351],[-157.0591,20.9134]]],[[[-157.3108,21.1016],[-157.2607,21.2257],[-156.7091,21.1587],[-156.8771,21.0493],[-157.3108,21.1016]]],[[[-158.2777,21.5788],[-158.1256,21.5868],[-157.9686,21.7127],[-157.8369,21.53],[-157.8455,21.4668],[-157.7225,21.4592],[-157.7106,21.3585],[-157.6518,21.3139],[-157.7001,21.264],[-157.8096,21.2577],[-157.89,21.3065],[-158.1033,21.2979],[-158.2777,21.5788]]],[[[-159.7837,22.0649],[-159.581,22.2235],[-159.4025,22.2326],[-159.293,22.123],[-159.3377,21.9512],[-159.4449,21.8686],[-159.6033,21.8923],[-159.7548,21.9778],[-159.7837,22.0649]]],[[[-160.2496,21.8152],[-160.194,21.9224],[-160.0585,21.9964],[-160.0791,21.8961],[-160.1561,21.8679],[-160.2058,21.7795],[-160.2496,21.8152]]]]}},
{"type":"Feature","properties":{"STATEFP":"44","STATENS":"01219835","GEOIDFQ":"0400000US44","GEOID":"44","STUSPS":"RI","NAME":"Rhode Island","LSAD":"00","ALAND":2677768885,"AWATER":1323681453},"geometry":{"type":"MultiPolygon","coordinates":[[[[-71.6315,41.1667],[-71.5933,41.2374],[-71.5454,41.2427],[-71.5192,41.1496],[-71.6315,41.1667]]],[[[-71.8605,41.3202],[-71.8396,41.4121],[-71.7977,41.4167],[-71.7992,42.0081],[-71.3814,42.0188],[-71.3294,41.7826],[-71.1329,41.6601],[-71.1206,41.4974],[-71.4287,41.4542],[-71.4833,41.3717],[-71.8605,41.3202]]]]}},
{"type":"Feature","properties":{"STATEFP":"09","STATENS":"01779780","GEOIDFQ":"0400000US09","GEOID":"09","STUSPS":"CT","NAME":"Connecticut","LSAD":"00","ALAND":12541999507,"AWATER":1816115183},"geometry":{"type":"Polygon","coordinates":[[[-73.7278,41.1007],[-73.4827,41.2128],[-73.551,41.2954],[-73.4873,42.0496],[-72.8471,42.0369],[-72.8101,41.9983],[-72.7355,42.0364],[-71.8007,42.0236],[-71.7977,41.4167],[-71.8396,41.4121],[-71.8605,41.3202],[-72.5472,41.2505],[-72.9356,41.2585],[-73.1084,41.1537],[-73.2027,41.1581],[-73.6573,40.9852],[-73.7278,41.1007]]]}},
{"type":"Feature","properties":{"STATEFP":"26","STATENS":"01779789","GEOIDFQ":"0400000US26","GEOID":"26","STUSPS":"MI","NAME":"Michigan","LSAD":"00","ALAND":146621709684,"AWATER":103864424446},"geometry":{"type":"MultiPolygon","coordinates":[[[[-84.6162,45.8945],[-84.5179,45.8285],[-84.356,45.7719],[-84.394,45.7276],[-84.4841,45.7307],[-84.6508,45.8592],[-84.6162,45.8945]]],[[[-85.7018,45.7361],[-85.5244,45.8298],[-85.361,45.8176],[-85.5616,45.5722],[-85.6227,45.586],[-85.7018,45.7361]]],[[[-86.1548,45.0024],[-86.0444,45.1596],[-85.954,45.1193],[-86.0815,44.9901],[-86.1548,45.0024]]],[[[-86.8248,41.7602],[-86.5979,41.9183],[-86.3562,42.2542],[-86.2406,42.54],[-86.2263,42.9883],[-86.5408,43.6446],[-86.4312,43.8407],[-86.5147,44.0581],[-86.2687,44.3453],[-86.2207,44.5667],[-86.2485,44.699],[-86.0892,44.7415],[-86.0589,44.911],[-85.7804,44.9779],[-85.6331,45.1709],[-85.5511,45.2107],[-85.5661,45.0436],[-85.52,44.974],[-85.4752,44.9911],[-85.3807,45.0463],[-85.3716,45.2708],[-85.1967,45.3606],[-84.913,45.4098],[-85.0409,45.4367],[-85.1093,45.5216],[-85.0615,45.6395],[-84.9709,45.6863],[-85.0145,45.7603],[-84.7728,45.7893],[-84.4617,45.6524],[-84.3295,45.6644],[-84.196,45.6215],[-84.0959,45.4973],[-83.9095,45.4858],[-83.5993,45.3526],[-83.4888,45.3559],[-83.3851,45.2742],[-83.4059,45.2272],[-83.2659,45.0268],[-83.4421,45.0511],[-83.4389,44.9408],[-83.3205,44.8806],[-83.2768,44.6894],[-83.337,44.3329],[-83.5248,44.2616],[-83.5841,44.0568],[-83.8694,43.9607],[-83.9477,43.7352],[-83.9095,43.6726],[-83.8179,43.6738],[-83.6833,43.5906],[-83.5123,43.7337],[-83.4071,43.9198],[-82.9289,44.0694],[-82.7932,44.0233],[-82.6336,43.8312],[-82.5231,43.2254],[-82.4159,43.0056],[-82.5099,42.6373],[-82.584,42.554],[-82.679,42.5222],[-82.7064,42.6211],[-82.6397,42.6612],[-82.801,42.6295],[-82.7559,42.5644],[-82.8593,42.5419],[-82.924,42.3521],[-83.0965,42.2901],[-83.1335,42.0881],[-83.4417,41.8086],[-83.4538,41.7326],[-84.8061,41.6961],[-84.8059,41.7602],[-86.8248,41.7602]]],[[[-89.2552,47.8761],[-88.6319,48.1483],[-88.4252,48.2107],[-88.5792,48.0408],[-88.8529,47.9653],[-88.899,47.9007],[-89.1577,47.824],[-89.2552,47.8761]]],[[[-90.4181,46.5661],[-90.0454,46.6683],[-89.832,46.8041],[-89.4152,46.844],[-89.1426,46.9849],[-88.9594,47.0085],[-88.8891,47.1006],[-88.2178,47.4487],[-87.8012,47.4733],[-87.5915,47.4241],[-87.6047,47.3886],[-87.9416,47.3901],[-87.9434,47.3359],[-88.3401,47.0805],[-88.4779,46.8506],[-88.1437,46.9667],[-87.9003,46.9097],[-87.5953,46.783],[-87.503,46.6475],[-87.3816,46.5801],[-87.3668,46.5073],[-86.977,46.5266],[-86.811,46.4497],[-86.6956,46.555],[-86.5577,46.4874],[-86.1383,46.6729],[-85.4821,46.6804],[-85.2569,46.7534],[-84.9647,46.7728],[-85.0283,46.6751],[-85.0274,46.5538],[-84.9695,46.4763],[-84.6784,46.4877],[-84.4934,46.4403],[-84.4203,46.5011],[-84.1179,46.5176],[-84.1149,46.1741],[-83.8823,46.0421],[-83.8158,46.1085],[-83.5986,46.0901],[-83.4806,45.9962],[-83.5263,45.9186],[-83.5831,45.9159],[-84.0801,45.9708],[-84.3764,45.932],[-84.4804,45.9778],[-84.734,45.907],[-84.7064,45.8487],[-84.7928,45.8587],[-85.0036,46.0061],[-85.3814,46.082],[-85.5409,46.0796],[-85.6972,45.9602],[-85.8104,45.9801],[-85.9138,45.9194],[-86.0721,45.9653],[-86.278,45.9421],[-86.3491,45.8342],[-86.5414,45.7081],[-86.6369,45.5421],[-86.7123,45.6109],[-86.7052,45.6909],[-86.6473,45.7326],[-86.7733,45.8114],[-86.8387,45.7223],[-86.9643,45.6728],[-87.0704,45.7188],[-87.1722,45.6618],[-87.5902,45.0953],[-87.7418,45.1971],[-87.6573,45.3688],[-87.8635,45.353],[-87.7777,45.6092],[-87.8247,45.6532],[-87.781,45.6739],[-87.8798,45.7548],[-88.1055,45.7988],[-88.1351,45.8217],[-88.0739,45.8756],[-88.1153,45.9222],[-88.5267,46.0208],[-88.6578,45.9893],[-89.0916,46.1385],[-90.1205,46.3369],[-90.2149,46.4999],[-90.4181,46.5661]]]]}},
{"type":"Feature","properties":{"STATEFP":"02","STATENS":"01785533","GEOIDFQ":"0400000US02","GEOID":"02","STUSPS":"AK","NAME":"Alaska","LSAD":"00","ALAND":1479508971743,"AWATER":244710526650},"geometry":{"type":"MultiPolygon","coordinates":[[[[179.4813,51.9753],[179.6368,52.0257],[179.7739,51.9707],[179.6495,51.8737],[179.4846,51.9213],[179.4813,51.9753]]],[[[178.6049,51.616],[178.6606,51.6831],[178.9253,51.6239],[179.4804,51.3639],[179.2533,51.3372],[178.8692,51.557],[178.6049,51.616]]],[[[178.4325,51.9655],[178.5526,51.974],[178.5916,51.9527],[178.5025,51.8997],[178.4325,51.9655]]],[[[178.2044,51.8309],[178.3297,51.8368],[178.3741,51.7479],[178.271,51.7652],[178.2044,51.8309]]],[[[178.0937,52.0551],[178.1548,52.0614],[178.2009,51.9912],[178.1209,51.977],[178.0937,52.0551]]],[[[177.1788,51.8792],[177.4605,51.9998],[177.5813,52.1449],[177.676,52.0922],[177.5721,52.0018],[177.601,51.9223],[177.4095,51.9308],[177.3118,51.826],[177.1788,51.8792]]],[[[173.864,52.7925],[174.1401,52.7507],[174.1581,52.7061],[173.819,52.7598],[173.864,52.7925]]],[[[173.32,52.4121],[173.6381,52.5242],[173.7728,52.5099],[173.7023,52.4348],[173.7483,52.3924],[173.7257,52.3566],[173.32,52.4121]]],[[[172.4589,52.9546],[172.6433,53.005],[173.122,52.9904],[173.4254,52.8684],[173.4238,52.8288],[173.205,52.8489],[173.1669,52.7952],[172.9036,52.7617],[172.6699,52.913],[172.4729,52.8902],[172.4589,52.9546]]],[[[-133.935,55.9207],[-133.6592,56.0838],[-133.6564,56.3269],[-133.5821,56.3525],[-133.197,56.333],[-132.9669,56.2243],[-132.8339,56.1039],[-132.8964,56.0997],[-132.8376,56.0243],[-132.4707,55.7822],[-132.4625,55.6739],[-132.3825,55.6653],[-132.3011,55.551],[-132.1429,55.4579],[-132.2581,55.4161],[-132.1264,55.2884],[-132.0371,55.2751],[-131.9774,55.1809],[-132.0275,55.1047],[-131.9579,54.7912],[-132.0297,54.7012],[-132.3079,54.7187],[-132.4035,54.7846],[-132.639,54.7533],[-132.6743,54.6747],[-132.8664,54.7004],[-132.8772,54.7538],[-133.1648,54.9769],[-133.2397,55.0924],[-133.2325,55.1988],[-133.4045,55.215],[-133.4682,55.2817],[-133.5866,55.3088],[-133.5968,55.2182],[-133.6584,55.2327],[-133.6902,55.3044],[-133.6309,55.4161],[-133.7891,55.4579],[-133.7167,55.6602],[-133.6433,55.729],[-133.7005,55.8374],[-133.9203,55.8603],[-133.935,55.9207]]],[[[-134.4185,56.8223],[-134.1471,56.957],[-134.0478,56.923],[-133.9429,56.8056],[-133.869,56.8459],[-133.9215,56.9615],[-134.0492,57.0292],[-133.888,57.0977],[-133.3343,57.0024],[-133.1046,57.0057],[-132.9814,56.9274],[-132.9032,56.8036],[-132.6193,56.6608],[-132.6113,56.5999],[-132.8068,56.5055],[-133.0417,56.5184],[-133.1835,56.4542],[-133.6555,56.4423],[-133.8216,56.3916],[-133.9605,56.0914],[-134.0874,56.0949],[-134.1181,55.9146],[-134.3118,55.8123],[-134.375,55.9285],[-134.2918,55.9262],[-134.2022,56.0352],[-134.2947,56.3359],[-134.198,56.531],[-134.3201,56.5545],[-134.3011,56.6203],[-134.3763,56.6686],[-134.4185,56.8223]]],[[[-134.9605,58.4038],[-134.7884,58.2891],[-134.7,58.1615],[-134.1744,58.1253],[-134.184,58.0773],[-133.9049,57.8074],[-133.8968,57.6855],[-133.8083,57.6096],[-133.8716,57.4842],[-133.8669,57.3679],[-133.7864,57.3115],[-133.8409,57.2711],[-133.9835,57.3028],[-134.1001,57.2663],[-134.5657,57.0237],[-134.6346,57.1099],[-134.6402,57.2399],[-134.5555,57.4074],[-134.6954,57.6853],[-134.7838,58.0823],[-134.9582,58.3221],[-134.9605,58.4038]]],[[[-136.5733,57.9268],[-136.5387,58.0935],[-136.3655,58.1489],[-136.3871,58.2524],[-135.7834,58.2867],[-135.2758,58.097],[-134.9508,58.037],[-134.9264,57.9219],[-135.005,57.8843],[-134.8249,57.5001],[-134.8549,57.2648],[-134.616,56.6373],[-134.6698,56.5241],[-134.6347,56.2658],[-134.674,56.1669],[-134.8102,56.245],[-135.1758,56.6779],[-135.4672,56.7714],[-135.5507,56.8412],[-135.3534,57.0209],[-135.5715,57.1057],[-135.6369,57.0099],[-135.856,56.9956],[-135.8446,57.0836],[-135.755,57.124],[-135.7536,57.1672],[-135.8323,57.1706],[-135.8705,57.2216],[-135.8377,57.2821],[-135.8921,57.408],[-136.0881,57.5553],[-136.1631,57.5589],[-136.3724,57.8326],[-136.5733,57.9268]]],[[[-152.0641,60.4171],[-151.9525,60.5106],[-151.8392,60.4859],[-151.9563,60.3678],[-152.08,60.3412],[-152.0641,60.4171]]],[[[-153.5974,59.3868],[-153.4125,59.4151],[-153.3478,59.378],[-153.3869,59.3308],[-153.5153,59.3209],[-153.5974,59.3868]]],[[[-154.7797,57.3663],[-154.5221,57.5778],[-154.197,57.6646],[-153.9946,57.6569],[-153.9303,57.6968],[-153.9352,57.813],[-153.512,57.9092],[-153.5332,57.9411],[-153.4846,57.9765],[-153.3864,57.9365],[-153.299,57.9856],[-153.4198,58.0596],[-152.8831,58.4004],[-152.6403,58.4699],[-152.6662,58.5441],[-152.5602,58.6197],[-152.3547,58.6383],[-152.3372,58.5891],[-152.5125,58.4273],[-152.4985,58.3724],[-152.3873,58.3595],[-152.3561,58.4235],[-152.3017,58.4287],[-152.2278,58.3764],[-152.1293,58.3964],[-151.8171,58.2634],[-151.7957,58.2111],[-151.8623,58.1683],[-152.4827,58.1298],[-152.7667,58.0299],[-152.7225,57.9874],[-152.8048,57.8992],[-152.7534,57.8345],[-152.4326,57.976],[-152.3241,57.9166],[-152.3512,57.8348],[-152.2122,57.7914],[-152.4402,57.7266],[-152.314,57.6364],[-152.1616,57.6233],[-152.3237,57.4679],[-152.2536,57.384],[-152.3237,57.3427],[-152.5705,57.4489],[-152.6957,57.2813],[-152.9435,57.257],[-152.9005,57.1321],[-153.342,56.9828],[-153.4043,57.0805],[-153.5808,57.049],[-153.5415,56.8879],[-153.8396,56.8221],[-154.017,56.6893],[-154.1531,56.6817],[-154.129,56.7422],[-154.3057,56.8469],[-154.3129,56.9187],[-154.5285,57.0019],[-154.5234,57.1291],[-154.595,57.2572],[-154.7938,57.2889],[-154.7797,57.3663]]],[[[-154.8404,56.4203],[-154.5141,56.6041],[-154.0958,56.6178],[-153.8788,56.5659],[-154.0209,56.482],[-154.5295,56.5027],[-154.7429,56.4017],[-154.8404,56.4203]]],[[[-155.75,55.8218],[-155.6054,55.9288],[-155.5306,55.9122],[-155.591,55.7617],[-155.7186,55.7724],[-155.75,55.8218]]],[[[-156.7336,56.0776],[-156.6148,56.0652],[-156.6182,56.0178],[-156.6818,55.9943],[-156.7353,56.0226],[-156.7336,56.0776]]],[[[-157.3261,56.5252],[-157.172,56.598],[-156.9755,56.5404],[-157.3261,56.5252]]],[[[-160.2527,54.9133],[-160.1371,55.1716],[-159.8706,55.2849],[-159.8164,55.1781],[-159.6703,55.1823],[-159.5211,55.2534],[-159.2032,54.9148],[-159.3097,54.8658],[-159.448,54.9414],[-159.5044,55.0273],[-159.7528,55.0661],[-160.027,55.0209],[-160.227,54.8641],[-160.2527,54.9133]]],[[[-160.8566,55.3185],[-160.6874,55.4022],[-160.5175,55.3794],[-160.2606,55.4637],[-160.137,55.4507],[-160.154,55.3775],[-160.3412,55.2518],[-160.4683,55.2889],[-160.5276,55.2564],[-160.4865,55.182],[-160.5252,55.1299],[-160.6556,55.1603],[-160.8214,55.1179],[-160.8566,55.3185]]],[[[-161.0756,58.5499],[-161.0566,58.7022],[-160.7006,58.8174],[-160.6793,58.7802],[-160.8805,58.5813],[-161.0756,58.5499]]],[[[-161.4513,55.178],[-161.3299,55.2194],[-161.3442,55.1585],[-161.4513,55.178]]],[[[-161.6971,55.2491],[-161.5234,55.2717],[-161.5602,55.207],[-161.6916,55.1985],[-161.6971,55.2491]]],[[[-162.8444,54.5104],[-162.5853,54.448],[-162.3448,54.4013],[-162.4669,54.3427],[-162.7602,54.3722],[-162.8617,54.4248],[-162.8444,54.5104]]],[[[-165.6022,54.0453],[-165.0079,54.1349],[-164.7637,54.2232],[-164.9561,54.061],[-165.6022,54.0453]]],[[[-166.0616,54.1851],[-165.6256,54.299],[-165.4785,54.2953],[-165.3837,54.1967],[-165.8751,54.0364],[-166.0464,54.0442],[-166.1122,54.1225],[-166.0616,54.1851]]],[[[-167.4306,60.197],[-167.3176,60.2315],[-166.8426,60.2105],[-166.8358,60.2688],[-166.7135,60.3273],[-166.6166,60.3192],[-166.4904,60.3895],[-166.3719,60.3552],[-166.1498,60.4367],[-166.0373,60.3195],[-165.8831,60.3434],[-165.6799,60.2924],[-165.7225,60.2365],[-165.6836,60.1983],[-165.7235,60.1638],[-165.6667,60.1243],[-165.7092,60.066],[-165.5326,59.9534],[-165.7066,59.8836],[-165.9823,59.8716],[-166.085,59.8396],[-166.0843,59.7761],[-166.1904,59.7502],[-166.3621,59.8386],[-166.6655,59.8782],[-167.3333,60.0666],[-167.4306,60.197]]],[[[-167.8515,53.3087],[-167.1357,53.5512],[-167.1616,53.6059],[-167.0058,53.7554],[-167.142,53.8269],[-167.141,53.8668],[-167.0313,53.9452],[-166.7426,54.0155],[-166.6446,54.0145],[-166.5084,53.9239],[-166.3571,54.0023],[-166.0753,53.9696],[-166.4049,53.8093],[-166.3368,53.7871],[-166.113,53.8537],[-166.1387,53.7311],[-166.4449,53.6406],[-166.7492,53.4409],[-167.1663,53.4128],[-167.6222,53.2504],[-167.8515,53.3087]]],[[[-168.1289,65.6557],[-166.0381,66.2695],[-165.4072,66.4204],[-164.4007,66.5811],[-163.604,66.5581],[-163.8731,66.389],[-163.8431,66.2599],[-163.9252,66.2251],[-163.8036,66.1001],[-163.6954,66.0596],[-162.7507,66.0902],[-162.6223,66.0395],[-162.3313,66.0314],[-162.1374,66.0785],[-161.838,66.0226],[-161.4845,66.2624],[-161.199,66.2109],[-160.994,66.2344],[-161.0892,66.3151],[-161.3221,66.3686],[-161.6944,66.3962],[-161.9163,66.3495],[-161.8749,66.5114],[-162.1754,66.6878],[-162.5014,66.7425],[-162.6267,66.8596],[-162.4684,66.9806],[-163.702,67.1094],[-163.8788,67.4161],[-164.0513,67.5664],[-164.2566,67.6517],[-165.3501,68.0259],[-165.975,68.1409],[-166.3131,68.2892],[-166.839,68.3372],[-166.3285,68.4423],[-166.1934,68.7266],[-166.2242,68.8732],[-165.5224,68.8558],[-164.2532,68.9309],[-163.574,69.1241],[-163.2447,69.3061],[-163.1514,69.4303],[-163.1513,69.6126],[-162.9891,69.8252],[-162.3023,70.2042],[-161.8793,70.3293],[-161.2882,70.2968],[-160.8128,70.3767],[-160.2148,70.5591],[-159.6484,70.7944],[-159.1718,70.8751],[-159.115,70.8174],[-158.8534,70.7924],[-157.7685,70.8758],[-157.421,70.9768],[-156.8097,71.2869],[-156.5686,71.3526],[-156.5311,71.2963],[-156.0744,71.2425],[-156.0446,71.1847],[-155.5877,71.1726],[-155.5333,71.0677],[-155.9521,70.9648],[-155.9793,70.9185],[-155.925,70.8527],[-155.7318,70.8312],[-155.543,70.8472],[-155.4859,70.8859],[-155.5133,70.9406],[-155.0608,71.1454],[-154.5811,71.0073],[-154.6083,70.9424],[-154.5725,70.8259],[-154.1275,70.7781],[-153.8905,70.8857],[-153.2385,70.9225],[-152.2231,70.8246],[-152.1925,70.7953],[-152.3484,70.7444],[-152.3522,70.6978],[-152.4733,70.6837],[-152.4338,70.6169],[-151.6973,70.5477],[-151.7399,70.4362],[-151.1752,70.3756],[-150.9038,70.4609],[-150.5574,70.4816],[-150.3015,70.4184],[-149.8667,70.5108],[-149.4618,70.5183],[-148.929,70.4268],[-148.667,70.4301],[-148.477,70.3591],[-148.4661,70.3136],[-148.2035,70.3482],[-147.9615,70.3142],[-147.7651,70.2198],[-147.2333,70.2076],[-147.1616,70.1556],[-146.9911,70.1476],[-146.8858,70.1859],[-145.8583,70.166],[-145.4348,70.037],[-144.9023,69.9645],[-144.6723,69.9669],[-143.9142,70.1157],[-143.2819,70.1511],[-141.4308,69.6951],[-141.0027,69.6456],[-141.0018,60.3061],[-140.5351,60.2242],[-140.4723,60.3106],[-139.9891,60.1852],[-139.6984,60.3404],[-139.0867,60.3577],[-139.2003,60.0907],[-139.0464,59.9982],[-138.7021,59.9102],[-138.5848,59.7525],[-137.6043,59.2431],[-137.4986,58.9867],[-137.5264,58.9068],[-136.8266,59.1584],[-136.5815,59.1649],[-136.4668,59.2843],[-136.4743,59.4642],[-136.3581,59.4498],[-136.2342,59.5247],[-136.3506,59.5993],[-135.4774,59.7996],[-135.2311,59.6972],[-135.0275,59.5637],[-135.0674,59.4219],[-134.962,59.2804],[-134.7024,59.2478],[-134.5667,59.1283],[-134.4812,59.1281],[-134.3798,59.035],[-134.401,58.9762],[-134.328,58.9634],[-134.2505,58.858],[-133.8404,58.728],[-133.3799,58.4279],[-133.4615,58.3855],[-132.2522,57.2157],[-132.3713,57.0952],[-132.051,57.0512],[-132.1259,56.8747],[-131.8717,56.805],[-131.9018,56.7532],[-131.8351,56.6018],[-131.5812,56.6133],[-131.0857,56.4065],[-130.8107,56.3711],[-130.4669,56.2398],[-130.4256,56.1407],[-130.2455,56.0969],[-130.1028,56.1167],[-130.0043,55.9934],[-130.0132,55.9164],[-130.1501,55.7271],[-130.1201,55.5639],[-129.9823,55.3021],[-130.3395,54.9214],[-130.6862,54.7169],[-130.9325,54.8069],[-131.0132,55.0901],[-131.0938,55.1913],[-131.1605,55.1975],[-131.19,55.0432],[-131.246,54.9896],[-131.1952,54.9198],[-131.2537,54.8668],[-131.5946,54.9311],[-131.6463,55.0356],[-131.6053,55.1074],[-131.7483,55.1286],[-131.8284,55.1985],[-131.8442,55.4567],[-132.1832,55.5881],[-132.2651,55.7622],[-132.0674,55.8751],[-132.28,55.9248],[-132.3232,55.8519],[-132.3973,55.8789],[-132.4928,56.0664],[-132.5942,56.0219],[-132.7087,56.1121],[-132.7183,56.2177],[-133.0701,56.331],[-132.9772,56.4397],[-132.6275,56.4629],[-132.4508,56.5641],[-132.529,56.638],[-132.5568,56.7572],[-132.7921,56.8562],[-132.9375,57.0483],[-133.4669,57.1594],[-133.5448,57.2426],[-133.472,57.3687],[-133.5196,57.5307],[-133.6764,57.6252],[-133.6545,57.7137],[-133.7031,57.7922],[-134.0496,58.062],[-134.1467,58.1991],[-134.6312,58.2474],[-134.7506,58.3915],[-134.9369,58.4575],[-135.1044,58.4493],[-135.0491,58.3093],[-135.1012,58.2926],[-135.0879,58.2001],[-135.3065,58.2429],[-135.4081,58.343],[-135.6499,58.3245],[-135.7281,58.3971],[-136.5448,58.3167],[-136.5919,58.2179],[-136.7012,58.2194],[-136.7171,58.2735],[-136.9864,58.404],[-137.0781,58.3975],[-137.6537,58.6083],[-137.9418,58.7943],[-137.952,58.886],[-138.2243,59.0322],[-139.8613,59.5467],[-139.7427,59.6239],[-139.5858,59.6428],[-139.6085,59.822],[-139.7768,59.8338],[-140.2426,59.6879],[-140.7925,59.7286],[-141.3928,59.87],[-141.5954,59.9619],[-142.4266,60.0711],[-142.9089,60.0903],[-143.897,59.9859],[-144.1103,60.0989],[-144.3489,60.0912],[-144.6549,60.2049],[-144.9293,60.2283],[-144.9578,60.2882],[-145.0891,60.32],[-145.3801,60.3528],[-145.6392,60.302],[-145.9885,60.3874],[-146.3933,60.3275],[-146.6077,60.2412],[-146.9165,60.291],[-147.3764,60.0162],[-147.3398,59.9621],[-147.4522,59.954],[-147.4703,59.9067],[-147.3918,59.8778],[-147.8765,59.7639],[-147.9292,59.7839],[-147.8551,59.8719],[-147.9568,59.9594],[-148.2541,59.9324],[-148.2206,59.9763],[-148.314,60.0339],[-148.4789,59.9358],[-148.6348,59.9157],[-149.1233,59.9686],[-149.3766,59.8359],[-149.4722,59.9037],[-149.5955,59.7977],[-149.5068,59.7709],[-149.5278,59.7068],[-149.732,59.7068],[-149.7462,59.6376],[-149.8427,59.7013],[-149.9194,59.6918],[-150.2808,59.4668],[-150.3853,59.342],[-150.4301,59.3434],[-150.4989,59.4563],[-150.5812,59.4452],[-150.6809,59.3054],[-150.8228,59.3308],[-150.9128,59.3052],[-150.8878,59.2679],[-150.9422,59.2331],[-151.4706,59.2426],[-151.4334,59.1355],[-151.6624,59.0897],[-151.8581,59.1442],[-151.9841,59.2787],[-151.8865,59.421],[-151.2055,59.6303],[-151.2969,59.6969],[-151.6431,59.647],[-151.8695,59.7692],[-151.718,60.0095],[-151.4217,60.2129],[-151.3669,60.3727],[-151.3061,60.3873],[-151.2818,60.496],[-151.4103,60.711],[-151.0626,60.7874],[-150.4019,61.0362],[-150.1941,60.9013],[-149.9854,60.879],[-149.7172,61.0113],[-150.005,61.1386],[-150.2659,61.1274],[-150.2049,61.2595],[-150.536,61.2697],[-150.9393,61.2103],[-151.1666,61.0464],[-151.4803,61.0109],[-151.7208,60.9043],[-151.8003,60.8537],[-151.7164,60.7104],[-151.8979,60.7218],[-152.2615,60.5382],[-152.3314,60.4735],[-152.2342,60.3939],[-152.5749,60.2065],[-152.5752,60.0483],[-152.7008,59.9203],[-152.9673,59.8815],[-153.0516,59.6916],[-153.155,59.6543],[-153.5425,59.6302],[-153.5778,59.556],[-153.7615,59.5434],[-153.699,59.4636],[-153.9985,59.3847],[-154.1227,59.2876],[-154.1807,59.1232],[-154.0635,59.0721],[-153.6957,59.074],[-153.2674,58.8672],[-153.5916,58.6401],[-153.8514,58.6119],[-153.9305,58.4975],[-154.0707,58.44],[-153.9854,58.3909],[-154.0741,58.3527],[-154.2225,58.1326],[-154.5815,58.0193],[-155.0263,57.9993],[-155.1186,57.9539],[-155.0618,57.9043],[-155.0971,57.8654],[-155.2729,57.824],[-155.354,57.7153],[-155.6094,57.7777],[-155.6299,57.6564],[-155.7242,57.6334],[-155.7328,57.5497],[-156.0468,57.5257],[-156.0128,57.4514],[-156.362,57.4005],[-156.3344,57.1823],[-156.5505,56.9846],[-156.7042,56.9871],[-156.826,56.8977],[-156.9356,56.9201],[-157.1836,56.7691],[-157.2905,56.8047],[-157.5308,56.7538],[-157.5638,56.7034],[-157.4522,56.6432],[-157.4965,56.6169],[-157.6746,56.6095],[-157.7918,56.6707],[-157.9185,56.6431],[-157.8178,56.5142],[-157.8691,56.4566],[-158.372,56.4673],[-158.4895,56.3419],[-158.2074,56.2944],[-158.1178,56.2307],[-158.3743,56.1345],[-158.4315,55.9945],[-159.0962,55.9147],[-159.0862,55.8349],[-159.5328,55.6764],[-159.6967,55.5733],[-159.7604,55.6152],[-159.6792,55.6559],[-159.6275,55.8032],[-159.7703,55.8524],[-159.8474,55.8025],[-160.0263,55.7923],[-160.0584,55.7217],[-160.3926,55.6028],[-160.5213,55.4744],[-160.6541,55.5126],[-160.6669,55.4598],[-160.9766,55.4727],[-161.254,55.3559],[-161.4861,55.3593],[-161.5142,55.3853],[-161.4693,55.4968],[-161.3761,55.5698],[-161.3926,55.6282],[-161.587,55.6201],[-161.7001,55.5144],[-161.6865,55.408],[-161.8633,55.267],[-161.8172,55.1765],[-161.5504,55.0657],[-162.1187,55.1029],[-162.2193,55.029],[-162.2368,54.8816],[-162.3493,54.836],[-162.4282,54.8954],[-162.4135,55.0366],[-162.4714,55.0519],[-162.588,54.972],[-162.8342,54.9269],[-162.9622,54.9935],[-163.353,54.8102],[-163.1843,54.7749],[-163.0378,54.647],[-163.2232,54.6769],[-163.5724,54.6232],[-164.0383,54.6247],[-164.2576,54.5727],[-164.4566,54.4199],[-164.744,54.3942],[-164.8615,54.4314],[-164.9488,54.5799],[-164.7418,54.6454],[-164.5769,54.8246],[-164.5763,54.8953],[-164.4353,54.9331],[-164.3435,54.8941],[-163.7741,55.0558],[-163.5271,55.0409],[-163.4295,54.9548],[-163.3438,54.9744],[-163.2808,55.033],[-163.3147,55.1263],[-162.8615,55.1983],[-162.9,55.2525],[-162.2196,55.7109],[-161.8078,55.892],[-161.1569,56.0122],[-160.8071,56.024],[-160.7932,55.886],[-160.5084,55.8694],[-160.4572,55.9172],[-160.5896,55.983],[-160.3859,56.2797],[-159.828,56.5439],[-158.9727,56.8421],[-158.8533,56.7926],[-158.6564,56.81],[-158.6793,56.9886],[-158.5313,57.1322],[-158.3202,57.2816],[-157.6789,57.5639],[-157.7092,57.6575],[-157.5966,58.0887],[-157.4801,58.2174],[-157.5472,58.2775],[-157.541,58.3773],[-157.4815,58.4808],[-157.1359,58.6807],[-156.9935,58.8368],[-157.1169,58.8675],[-158.1403,58.615],[-158.2323,58.6199],[-158.3321,58.6653],[-158.3769,58.748],[-158.5648,58.8027],[-158.5203,58.8571],[-158.6197,58.911],[-158.7677,58.8643],[-158.7801,58.7538],[-158.8612,58.6956],[-158.7041,58.4828],[-158.8809,58.3907],[-159.0633,58.4231],[-159.4098,58.7736],[-159.6435,58.8451],[-159.6161,58.9316],[-159.7121,58.9295],[-159.7929,58.824],[-159.9084,58.7799],[-160.3229,58.954],[-160.2566,58.9945],[-160.3178,59.0705],[-160.731,58.9212],[-160.8235,58.8291],[-160.872,58.8785],[-161.0011,58.8497],[-161.338,58.7429],[-161.3723,58.6662],[-161.752,58.5518],[-161.8022,58.6123],[-162.1717,58.6484],[-161.8241,58.7345],[-161.7648,58.8462],[-161.804,58.9917],[-162.0486,59.2542],[-161.9929,59.3384],[-161.7025,59.4909],[-162.3722,60.167],[-162.4942,60.1303],[-162.5153,59.9762],[-162.7374,59.9723],[-163.1726,59.8451],[-163.7722,59.7956],[-164.1334,59.8456],[-164.2085,59.9345],[-164.1318,59.9912],[-164.411,60.0977],[-164.6989,60.2963],[-164.9845,60.3499],[-165.1294,60.4337],[-164.9568,60.5278],[-165.2749,60.499],[-165.4203,60.5507],[-164.9917,60.6988],[-165.0851,60.9138],[-165.1949,60.9739],[-165.0578,61.0597],[-165.3256,61.1693],[-165.3854,61.0796],[-165.5551,61.0927],[-165.6403,61.1381],[-165.6233,61.2784],[-165.8314,61.3067],[-165.9212,61.4031],[-165.7464,61.4893],[-165.9125,61.5562],[-166.0754,61.493],[-166.1496,61.5133],[-166.2118,61.6084],[-166.1438,61.7244],[-166.051,61.7667],[-166.0943,61.8139],[-165.6395,61.847],[-165.7435,61.9625],[-165.7543,62.056],[-165.0962,62.5225],[-165.0522,62.5982],[-164.8377,62.6853],[-164.8756,62.8063],[-164.813,62.9039],[-164.6074,63.1129],[-164.4424,63.2027],[-164.067,63.2623],[-163.7327,63.2133],[-163.3162,63.0378],[-163.054,63.0583],[-162.5266,63.3166],[-162.3523,63.4541],[-162.7076,63.5776],[-162.5875,63.6251],[-162.4012,63.6344],[-161.9822,63.4463],[-161.4211,63.4601],[-161.1912,63.4901],[-161.0736,63.5617],[-160.7833,63.7529],[-160.7656,63.8287],[-160.9411,64.0663],[-160.962,64.2206],[-161.2635,64.3982],[-161.5049,64.4231],[-161.469,64.5066],[-161.3899,64.5478],[-161.198,64.4966],[-160.7934,64.6193],[-160.7834,64.7172],[-160.936,64.8224],[-161.1331,64.8982],[-161.377,64.773],[-161.6455,64.7765],[-162.1881,64.6724],[-162.2345,64.6193],[-162.54,64.5309],[-162.6322,64.3857],[-162.7684,64.3335],[-162.8576,64.4998],[-162.9408,64.5424],[-163.0332,64.5193],[-163.1332,64.3818],[-163.4129,64.525],[-163.8297,64.575],[-164.3073,64.5615],[-165.002,64.4339],[-166.2369,64.5836],[-166.4139,64.6512],[-166.4827,64.7551],[-166.4073,64.8523],[-166.4322,64.8832],[-166.9119,65.126],[-166.6344,65.1259],[-166.4799,65.1672],[-166.4517,65.2362],[-166.3472,65.2763],[-166.4394,65.3191],[-167.474,65.4127],[-168.0476,65.5691],[-168.1289,65.6557]]],[[[-169.2865,52.7847],[-168.7852,53.045],[-168.8049,53.12],[-168.7633,53.1828],[-168.5819,53.2865],[-168.4451,53.2653],[-168.3421,53.476],[-168.027,53.5628],[-167.7892,53.5193],[-167.8423,53.3865],[-168.2962,53.2272],[-168.4571,53.0558],[-168.7555,52.9075],[-169.2618,52.7549],[-169.2865,52.7847]]],[[[-169.8183,56.6336],[-169.4743,56.6252],[-169.4538,56.5838],[-169.6858,56.5397],[-169.8183,56.6336]]],[[[-170.2079,52.7089],[-170.0922,52.9194],[-169.8576,52.9085],[-169.7627,52.9781],[-169.8202,53.0668],[-169.7475,53.0932],[-169.68,53.0351],[-169.7039,52.7771],[-169.9515,52.7886],[-170.2079,52.7089]]],[[[-170.42,57.2129],[-170.144,57.2428],[-170.1339,57.1813],[-170.2863,57.1282],[-170.4219,57.1612],[-170.42,57.2129]]],[[[-170.8179,52.6363],[-170.6715,52.6981],[-170.5321,52.68],[-170.585,52.5872],[-170.7885,52.5402],[-170.8419,52.5582],[-170.8179,52.6363]]],[[[-171.3042,52.45],[-171.2568,52.5286],[-171.196,52.5001],[-171.2267,52.4343],[-171.3042,52.45]]],[[[-171.85,63.485],[-171.7434,63.783],[-171.6132,63.7851],[-171.5529,63.6663],[-170.9508,63.5701],[-170.6063,63.6727],[-170.3449,63.6942],[-170.0958,63.6127],[-170.0079,63.4754],[-169.4627,63.3605],[-168.6851,63.2964],[-168.8417,63.1538],[-169.2305,63.1729],[-169.4367,63.1136],[-169.535,63.0744],[-169.568,62.9769],[-169.6383,62.9375],[-169.7572,62.9601],[-169.8812,63.1058],[-170.263,63.1791],[-170.4307,63.3143],[-170.6635,63.3761],[-171.0677,63.4246],[-171.4333,63.3076],[-171.7601,63.3816],[-171.85,63.485]]],[[[-172.6123,52.3068],[-172.4482,52.3914],[-172.3014,52.33],[-172.64,52.2448],[-172.6123,52.3068]]],[[[-173.0746,60.7047],[-172.8473,60.5167],[-172.2389,60.3366],[-172.2543,60.2974],[-172.6303,60.3349],[-173.0638,60.5026],[-173.1156,60.659],[-173.0746,60.7047]]],[[[-175.3016,52.0556],[-174.5547,52.1604],[-174.463,52.213],[-174.456,52.3137],[-174.1853,52.4178],[-173.9852,52.3176],[-174.047,52.2363],[-174.0226,52.1337],[-173.5299,52.1594],[-173.3752,52.1082],[-172.9478,52.1074],[-172.9802,52.0641],[-173.5131,52.0253],[-174.2783,52.0895],[-174.3827,52.0817],[-174.4087,52.0128],[-175.3233,52.0075],[-175.3016,52.0556]]],[[[-176.9874,51.6069],[-176.9171,51.797],[-176.7819,51.8324],[-176.8104,51.9271],[-176.774,51.9659],[-176.58,52.0032],[-176.5764,51.8423],[-176.1739,51.8825],[-176.2112,52.0647],[-176.1495,52.1176],[-176.056,52.1095],[-175.8875,51.9952],[-175.4505,52.0128],[-175.4249,51.9723],[-175.7891,51.9193],[-175.9985,51.8016],[-176.4671,51.7267],[-176.7154,51.6204],[-176.9389,51.591],[-176.9874,51.6069]]],[[[-177.6701,51.7434],[-177.2282,51.8038],[-177.1813,51.9432],[-177.0451,51.8986],[-177.1052,51.7193],[-177.1899,51.6972],[-177.6514,51.6536],[-177.7078,51.7033],[-177.6701,51.7434]]],[[[-178.1971,51.9055],[-177.9521,51.9154],[-177.8874,51.8509],[-177.6153,51.8551],[-177.868,51.6794],[-177.9092,51.5967],[-178.1179,51.6778],[-177.9816,51.7156],[-177.9953,51.7815],[-178.2241,51.8649],[-178.1971,51.9055]]],[[[-178.8893,51.5704],[-178.6781,51.626],[-178.5515,51.6102],[-178.5848,51.5639],[-178.7346,51.5423],[-178.8893,51.5704]]],[[[-178.8768,51.8379],[-178.7797,51.8516],[-178.7334,51.784],[-178.7924,51.7461],[-178.896,51.7792],[-178.8768,51.8379]]],[[[-179.1743,51.2791],[-178.9956,51.4145],[-178.9089,51.3406],[-179.1269,51.2199],[-179.1743,51.2791]]]]}},
{"type":"Feature","properties":{"STATEFP":"10","STATENS":"01779781","GEOIDFQ":"0400000US10","GEOID":"10","STUSPS":"DE","NAME":"Delaware","LSAD":"00","ALAND":5046692239,"AWATER":1399219008},"geometry":{"type":"Polygon","coordinates":[[[-75.7738,39.7222],[-75.6628,39.8214],[-75.4151,39.8019],[-75.5594,39.6298],[-75.5127,39.578],[-75.5281,39.4981],[-75.5931,39.4792],[-75.4084,39.2647],[-75.3963,39.0579],[-75.3041,38.9132],[-75.159,38.7902],[-75.0895,38.7972],[-75.0489,38.4513],[-75.6937,38.4601],[-75.7738,39.7222]]]}},
{"type":"Feature","properties":{"STATEFP":"35","STATENS":"00897535","GEOIDFQ":"0400000US35","GEOID":"35","STUSPS":"NM","NAME":"New Mexico","LSAD":"00","ALAND":314198519809,"AWATER":726531289},"geometry":{"type":"Polygon","coordinates":[[[-109.05,31.3325],[-109.0452,36.9991],[-103.0022,37.0001],[-103.0024,36.5004],[-103.0419,36.5004],[-103.0644,32.0005],[-106.6185,32.0005],[-106.6359,31.8715],[-106.5282,31.7831],[-108.2084,31.7836],[-108.2086,31.3334],[-109.05,31.3325]]]}},
{"type":"Feature","properties":{"STATEFP":"01","STATENS":"01779775","GEOIDFQ":"0400000US01","GEOID":"01","STUSPS":"AL","NAME":"Alabama","LSAD":"00","ALAND":131185561946,"AWATER":4581813708},"geometry":{"type":"Polygon","coordinates":[[[-88.4687,31.8939],[-88.0979,34.8922],[-88.203,35.008],[-85.6052,34.9847],[-85.1844,32.8613],[-84.9718,32.4428],[-85.0081,32.3367],[-84.8918,32.2634],[-85.0588,32.136],[-85.0678,31.9674],[-85.1418,31.8393],[-85.1255,31.695],[-85.0419,31.5447],[-85.1075,31.1864],[-85.0025,31.0007],[-87.5989,30.9974],[-87.6349,30.8659],[-87.4002,30.6572],[-87.4447,30.5075],[-87.3666,30.4366],[-87.4523,30.3441],[-87.5183,30.2804],[-87.8932,30.2392],[-87.7967,30.3242],[-87.9334,30.4874],[-87.9017,30.5509],[-87.9311,30.6527],[-88.0084,30.685],[-88.062,30.6449],[-88.1362,30.3207],[-88.2578,30.3189],[-88.395,30.3694],[-88.4687,31.8939]]]}},
{"type":"Feature","properties":{"STATEFP":"72","STATENS":"01779808","GEOIDFQ":"0400000US72","GEOID":"72","STUSPS":"PR","NAME":"Puerto Rico","LSAD":"00","ALAND":8869519701,"AWATER":4921758891},"geometry":{"type":"MultiPolygon","coordinates":[[[[-65.3421,18.3453],[-65.2559,18.3421],[-65.2216,18.321],[-65.2833,18.2802],[-65.3421,18.3453]]],[[[-65.5769,18.1032],[-65.5059,18.1526],[-65.288,18.1481],[-65.2912,18.1035],[-65.5769,18.1032]]],[[[-67.2714,18.3623],[-67.1596,18.4159],[-67.1257,18.5117],[-67.0423,18.5116],[-65.905,18.4509],[-65.5862,18.3934],[-65.5649,18.325],[-65.6249,18.3107],[-65.5991,18.213],[-65.7587,18.1566],[-65.8849,17.9885],[-66.024,17.9759],[-66.0417,17.9349],[-66.2432,17.9138],[-66.3384,17.9765],[-66.3851,17.939],[-66.4455,17.9794],[-66.7585,17.9952],[-66.9273,17.9269],[-67.0545,17.9732],[-67.1835,17.9311],[-67.2099,18.0355],[-67.158,18.2167],[-67.2714,18.3623]]],[[[-67.9412,18.1269],[-67.8462,18.1276],[-67.8209,18.0847],[-67.8856,18.0365],[-67.9558,18.0742],[-67.9412,18.1269]]]]}},
{"type":"Feature","properties":{"STATEFP":"20","STATENS":"00481813","GEOIDFQ":"0400000US20","GEOID":"20","STUSPS":"KS","NAME":"Kansas","LSAD":"00","ALAND":211753821560,"AWATER":1345663763},"geometry":{"type":"Polygon","coordinates":[[[-102.0517,40.0031],[-95.3083,40.0],[-95.0815,39.8617],[-94.9515,39.9005],[-94.8604,39.7495],[-94.9711,39.7231],[-95.1136,39.5539],[-94.889,39.3924],[-94.9081,39.3237],[-94.7997,39.206],[-94.5919,39.155],[-94.618,36.9989],[-102.0422,36.9931],[-102.0517,40.0031]]]}},
{"type":"Feature","properties":{"STATEFP":"50","STATENS":"01779802","GEOIDFQ":"0400000US50","GEOID":"50","STUSPS":"VT","NAME":"Vermont","LSAD":"00","ALAND":23872594714,"AWATER":1030642813},"geometry":{"type":"Polygon","coordinates":[[[-73.4369,44.0426],[-73.3166,44.2578],[-73.3346,44.3569],[-73.2936,44.4406],[-73.39,44.6196],[-73.3344,44.8022],[-73.3798,44.857],[-73.3431,45.0108],[-71.5011,45.0134],[-71.5316,44.976],[-71.4944,44.9118],[-71.6269,44.7472],[-71.5517,44.6276],[-71.58,44.5018],[-71.8188,44.3529],[-72.0463,44.292],[-72.0369,44.1031],[-72.1059,43.9494],[-72.3794,43.5741],[-72.445,43.0044],[-72.5322,42.9549],[-72.5561,42.8663],[-72.4585,42.7269],[-73.265,42.7459],[-73.242,43.5349],[-73.3277,43.6259],[-73.3958,43.5681],[-73.425,43.5988],[-73.3507,43.7705],[-73.4369,44.0426]]]}},
{"type":"Feature","properties":{"STATEFP":"34","STATENS":"01779795","GEOIDFQ":"0400000US34","GEOID":"34","STUSPS":"NJ","NAME":"New Jersey","LSAD":"00","ALAND":19049229866,"AWATER":3533374440},"geometry":{"type":"Polygon","coordinates":[[[-75.5594,39.6298],[-75.4151,39.8019],[-75.1334,39.8962],[-75.1192,39.9654],[-74.7216,40.1538],[-74.9696,40.3998],[-75.0561,40.4161],[-75.0785,40.5483],[-75.1867,40.5694],[-75.1775,40.7642],[-75.1085,40.7911],[-75.0654,40.8857],[-75.1331,40.9802],[-74.9053,41.1557],[-74.8157,41.2962],[-74.6949,41.3574],[-73.894,40.9972],[-74.0473,40.6905],[-74.2022,40.6309],[-74.2606,40.5024],[-74.2062,40.4407],[-74.0479,40.4189],[-73.9979,40.4767],[-73.977,40.4085],[-74.1014,39.7562],[-74.367,39.402],[-74.6466,39.212],[-74.8079,38.986],[-74.9673,38.9334],[-74.9052,39.1749],[-75.0485,39.2152],[-75.1367,39.1819],[-75.5364,39.4606],[-75.5127,39.578],[-75.5594,39.6298]]]}},
{"type":"Feature","properties":{"STATEFP":"33","STATENS":"01779794","GEOIDFQ":"0400000US33","GEOID":"33","STUSPS":"NH","NAME":"New Hampshire","LSAD":"00","ALAND":23190211616,"AWATER":1025871482},"geometry":{"type":"Polygon","coordinates":[[[-72.5561,42.8663],[-72.5322,42.9549],[-72.445,43.0044],[-72.3794,43.5741],[-72.1833,43.8082],[-72.0369,44.1031],[-72.0463,44.292],[-71.8188,44.3529],[-71.58,44.5018],[-71.5517,44.6276],[-71.6269,44.7472],[-71.4944,44.9118],[-71.5316,44.976],[-71.4056,45.1981],[-71.4385,45.239],[-71.2837,45.302],[-71.1394,45.243],[-71.0839,45.3054],[-70.9548,43.5098],[-70.9843,43.3761],[-70.8131,43.2173],[-70.8281,43.1291],[-70.7038,43.0598],[-70.8173,42.8723],[-71.0312,42.8591],[-71.2942,42.697],[-72.4585,42.7269],[-72.5561,42.8663]]]}},
{"type":"Feature","properties":{"STATEFP":"04","STATENS":"01779777","GEOIDFQ":"0400000US04","GEOID":"04","STUSPS":"AZ","NAME":"Arizona","LSAD":"00","ALAND":294366118294,"AWATER":853991999},"geometry":{"type":"Polygon","coordinates":[[[-114.8136,32.4943],[-114.7057,32.7416],[-114.5707,32.7474],[-114.469,32.8452],[-114.5113,33.0235],[-114.6708,33.038],[-114.7062,33.1053],[-114.6745,33.2556],[-114.7233,33.2881],[-114.7253,33.405],[-114.6352,33.4227],[-114.5246,33.5522],[-114.4966,33.7192],[-114.535,33.9285],[-114.4059,34.1115],[-114.1391,34.2595],[-114.1728,34.345],[-114.3788,34.4504],[-114.4652,34.6912],[-114.6344,34.8729],[-114.6199,35.1216],[-114.5727,35.1387],[-114.6645,35.4495],[-114.7037,35.8146],[-114.6697,35.8651],[-114.7312,35.9439],[-114.7433,36.0705],[-114.6279,36.141],[-114.3721,36.1431],[-114.2706,36.0357],[-114.1517,36.0246],[-114.0468,36.1941],[-114.0506,37.0004],[-109.0452,36.9991],[-109.05,31.3325],[-111.0748,31.3322],[-114.8136,32.4943]]]}}
]
}
